{
  "type": "FeatureCollection",
  "crs": {
    "type": "name",
    "properties": {
      "name": "EPSG:4326"
    }
  },
  "features": [
    {
      "type": "Feature",
      "id": 11,
      "geometry": {
        "type": "Polygon",
        "coordinates": [
          [
            [
              -93.1670551744383,
              44.9702850693346
            ],
            [
              -93.1465875610113,
              44.9674696109477
            ],
            [
              -93.1466081857273,
              44.9557276489686
            ],
            [
              -93.1761922944453,
              44.9556496712893
            ],
            [
              -93.1772431680817,
              44.9558552161881
            ],
            [
              -93.1873633303866,
              44.9598405771856
            ],
            [
              -93.1873206410321,
              44.9723679634826
            ],
            [
              -93.1744150330538,
              44.9711910996178
            ],
            [
              -93.1670553925848,
              44.9702270621669
            ],
            [
              -93.1670551744383,
              44.9702850693346
            ]
          ]
        ]
      },
      "properties": {
        "objectid": 18,
        "districtnumber": 11,
        "planningdistrict": "Planning District 11",
        "planningdistrictname": "Hamline - Midway",
        "councilname": "Hamline Midway Coalition",
        "address": "1600 University Avenue West, Suite 301",
        "zipcode": 55104,
        "website": "http://www.hamlinemidway.org/",
        "email": "info@hamlinemidway.org",
        "phone": "651-494-7682",
        "demographics": "http://www.mncompass.org/profiles/neighborhoods/st-paul/hamline-midway",
        "crimeincidentreports": "https://information.stpaul.gov/Public-Safety/District-Council-11-Hamline-Midway-Crime-Incidents/j95j-25b7",
        "globalid_1": "ff27c4cc-b1b3-473e-8bd8-e514cac9508f",
        "Shape__Area": 53473165.40081024,
        "Shape__Length": 30508.526275581607,
        "district_id": 11
      }
    },
    {
      "type": "Feature",
      "id": 14,
      "geometry": {
        "type": "Polygon",
        "coordinates": [
          [
            [
              -93.143922212674,
              44.92866682925
            ],
            [
              -93.1448313270056,
              44.9269318283294
            ],
            [
              -93.1997905634429,
              44.927045164805
            ],
            [
              -93.2002897685174,
              44.9306671756728
            ],
            [
              -93.200790538347,
              44.9343009182437
            ],
            [
              -93.2006207947011,
              44.9379024295198
            ],
            [
              -93.200450790215,
              44.9415039822463
            ],
            [
              -93.1529369965329,
              44.9414505194229
            ],
            [
              -93.1525925163659,
              44.9407657761037
            ],
            [
              -93.1523264551933,
              44.9400210050669
            ],
            [
              -93.1521026598235,
              44.9393316328688
            ],
            [
              -93.1509787609599,
              44.9357789761558
            ],
            [
              -93.150739013785,
              44.9350817462345
            ],
            [
              -93.1501748145011,
              44.9341754987104
            ],
            [
              -93.1494990344297,
              44.9334657797566
            ],
            [
              -93.1485324233933,
              44.9327554583353
            ],
            [
              -93.1475373721223,
              44.9322319915718
            ],
            [
              -93.1465003047575,
              44.9318264855269
            ],
            [
              -93.1448333555467,
              44.9308150432167
            ],
            [
              -93.143922212674,
              44.92866682925
            ]
          ]
        ]
      },
      "properties": {
        "objectid": 19,
        "districtnumber": 14,
        "planningdistrict": "Planning District 14",
        "planningdistrictname": "Macalester - Groveland",
        "councilname": "Macalester Groveland Community Council",
        "address": "320 Griggs St S",
        "zipcode": 55105,
        "website": "http://www.macgrove.org/",
        "email": "mgcc@macgrove.org",
        "phone": "651-695-4000",
        "demographics": "http://www.mncompass.org/profiles/neighborhoods/st-paul/macalester-groveland",
        "crimeincidentreports": "https://information.stpaul.gov/Public-Safety/District-Council-14-Macalester-Groveland-Crime-Inc/yesa-xbrn",
        "globalid_1": "55613dfd-54a8-4d5d-92e4-bb9b4d9b0ed1",
        "Shape__Area": 70645802.85481262,
        "Shape__Length": 37940.54448937827,
        "district_id": 14
      }
    },
    {
      "type": "Feature",
      "id": 15,
      "geometry": {
        "type": "Polygon",
        "coordinates": [
          [
            [
              -93.1448313270056,
              44.9269318283294
            ],
            [
              -93.1450334986434,
              44.9249187414413
            ],
            [
              -93.1449053021651,
              44.9221996129805
            ],
            [
              -93.1445453723995,
              44.91562948275
            ],
            [
              -93.1528162137667,
              44.9100144265235
            ],
            [
              -93.1556580456509,
              44.908692292327
            ],
            [
              -93.1542898083148,
              44.9057878257891
            ],
            [
              -93.1536753015543,
              44.9051401581802
            ],
            [
              -93.1495122054335,
              44.9073181129735
            ],
            [
              -93.1452042214816,
              44.910204582097
            ],
            [
              -93.1438985456962,
              44.9109109216643
            ],
            [
              -93.1427890391188,
              44.9084362800554
            ],
            [
              -93.1385920071578,
              44.9039037181203
            ],
            [
              -93.1416387891693,
              44.9020885258827
            ],
            [
              -93.1423465142309,
              44.9016661583468
            ],
            [
              -93.14668065675,
              44.8990789909968
            ],
            [
              -93.1477361695142,
              44.8985170945058
            ],
            [
              -93.1491104557944,
              44.8977856287428
            ],
            [
              -93.1516096263455,
              44.8947480808475
            ],
            [
              -93.1537900824396,
              44.8929436435271
            ],
            [
              -93.1563831838899,
              44.8921891219571
            ],
            [
              -93.1643459962684,
              44.8903396623245
            ],
            [
              -93.1696033454013,
              44.8880971930703
            ],
            [
              -93.1732886676941,
              44.8874388989315
            ],
            [
              -93.1768509121875,
              44.8877709055338
            ],
            [
              -93.1779041901744,
              44.8882822825726
            ],
            [
              -93.1781999311303,
              44.8890894810126
            ],
            [
              -93.1779930317736,
              44.8912826734123
            ],
            [
              -93.176991159577,
              44.8930781723058
            ],
            [
              -93.1771885293958,
              44.8935596981457
            ],
            [
              -93.1818853759012,
              44.8940775694463
            ],
            [
              -93.1873770317262,
              44.8949848007607
            ],
            [
              -93.1911754771825,
              44.8964003891874
            ],
            [
              -93.1921475170248,
              44.8974775772741
            ],
            [
              -93.1915126508595,
              44.9027693615454
            ],
            [
              -93.1924236580886,
              44.9042710031023
            ],
            [
              -93.1945298587887,
              44.9056755588798
            ],
            [
              -93.1996193539258,
              44.9083161442606
            ],
            [
              -93.2008285788456,
              44.9100729324795
            ],
            [
              -93.2015558783445,
              44.9131026181109
            ],
            [
              -93.2010708097014,
              44.9153378562666
            ],
            [
              -93.2010565150883,
              44.9198523110641
            ],
            [
              -93.1997888228697,
              44.9270325278004
            ],
            [
              -93.1997905634429,
              44.927045164805
            ],
            [
              -93.1448313270056,
              44.9269318283294
            ]
          ]
        ]
      },
      "properties": {
        "objectid": 20,
        "districtnumber": 15,
        "planningdistrict": "Planning District 15",
        "planningdistrictname": "Highland Park",
        "councilname": "Highland District Council",
        "address": "1978 Ford Pkwy",
        "zipcode": 55116,
        "website": "http://www.highlanddistrictcouncil.org/",
        "email": "info@highlanddistrictcouncil.org",
        "phone": "651-695-4005",
        "demographics": "http://www.mncompass.org/profiles/neighborhoods/st-paul/highland",
        "crimeincidentreports": "https://information.stpaul.gov/Public-Safety/District-Council-15-Highland-Crime-Incidents/9frv-a83y",
        "globalid_1": "78219b9b-d259-4ad0-812c-94379bbbd583",
        "Shape__Area": 168707742.9444046,
        "Shape__Length": 60362.718043548,
        "district_id": 15
      }
    },
    {
      "type": "Feature",
      "id": 4,
      "geometry": {
        "type": "Polygon",
        "coordinates": [
          [
            [
              -93.0395813071877,
              44.9630599837164
            ],
            [
              -93.039597482823,
              44.9603486447198
            ],
            [
              -93.0362945809521,
              44.9603386475067
            ],
            [
              -93.03631052913,
              44.9576951855643
            ],
            [
              -93.0394934334968,
              44.9576621846744
            ],
            [
              -93.0394553034279,
              44.9539952642129
            ],
            [
              -93.0409037712574,
              44.9527631385625
            ],
            [
              -93.0405162326247,
              44.9472617616807
            ],
            [
              -93.0568935831142,
              44.9426454402846
            ],
            [
              -93.0632802981929,
              44.945237222208
            ],
            [
              -93.0711257900454,
              44.9475968403959
            ],
            [
              -93.07622359779,
              44.947535261625
            ],
            [
              -93.0792849658306,
              44.9467623003678
            ],
            [
              -93.0825579314302,
              44.9527202521998
            ],
            [
              -93.083457049769,
              44.9522847965057
            ],
            [
              -93.0848602036597,
              44.9519302576665
            ],
            [
              -93.0862050277752,
              44.9520133720967
            ],
            [
              -93.0880510514948,
              44.9527346008701
            ],
            [
              -93.0901188993742,
              44.9539339950329
            ],
            [
              -93.0910681671909,
              44.954652866448
            ],
            [
              -93.091371423059,
              44.9557500538255
            ],
            [
              -93.0771529540377,
              44.9557736630101
            ],
            [
              -93.0774131882845,
              44.9572986356448
            ],
            [
              -93.0773187188547,
              44.9592930381745
            ],
            [
              -93.0771483975012,
              44.9597808249251
            ],
            [
              -93.0769115231088,
              44.960167211559
            ],
            [
              -93.0763217219734,
              44.9606836417472
            ],
            [
              -93.0756868456616,
              44.9610527325808
            ],
            [
              -93.0744655013047,
              44.9612085561138
            ],
            [
              -93.0737515368044,
              44.9614150176714
            ],
            [
              -93.0732040443843,
              44.9618541415008
            ],
            [
              -93.0728666575347,
              44.9622104754708
            ],
            [
              -93.0724514636189,
              44.9628252595778
            ],
            [
              -93.072337484836,
              44.9639119340342
            ],
            [
              -93.0725316564309,
              44.9652283398285
            ],
            [
              -93.0725461790325,
              44.965645172603
            ],
            [
              -93.0724097977511,
              44.9660496862668
            ],
            [
              -93.07213941345,
              44.9664181084938
            ],
            [
              -93.0715837310456,
              44.9668095689574
            ],
            [
              -93.0709703990744,
              44.9670043799559
            ],
            [
              -93.0703410004996,
              44.9670681515445
            ],
            [
              -93.069645313781,
              44.9669828824548
            ],
            [
              -93.0688919607044,
              44.9667069170574
            ],
            [
              -93.0681642988947,
              44.9663357496554
            ],
            [
              -93.0675530186603,
              44.966155433782
            ],
            [
              -93.0631431588328,
              44.9658275740002
            ],
            [
              -93.0610459613642,
              44.9658990756225
            ],
            [
              -93.0573258687953,
              44.9667042331057
            ],
            [
              -93.0541181486673,
              44.9673618953819
            ],
            [
              -93.0509149135611,
              44.96810844646
            ],
            [
              -93.0486347904894,
              44.9697982547881
            ],
            [
              -93.0470734808133,
              44.9711508427815
            ],
            [
              -93.0459890858062,
              44.9726744677391
            ],
            [
              -93.0455559522741,
              44.9750337533422
            ],
            [
              -93.0447931870882,
              44.974573449617
            ],
            [
              -93.0445719554762,
              44.9743548276323
            ],
            [
              -93.0440672503748,
              44.973371940707
            ],
            [
              -93.0439764082401,
              44.9724851205024
            ],
            [
              -93.0439808348264,
              44.9717349752654
            ],
            [
              -93.044175790757,
              44.9712581809493
            ],
            [
              -93.0448534985565,
              44.9703736424248
            ],
            [
              -93.0449515735077,
              44.9700329521492
            ],
            [
              -93.0449583945985,
              44.9688736361362
            ],
            [
              -93.04497283835,
              44.9664186138455
            ],
            [
              -93.0451693731499,
              44.965669037284
            ],
            [
              -93.0456524788024,
              44.9651930935556
            ],
            [
              -93.045944658053,
              44.9645119949844
            ],
            [
              -93.0459530585297,
              44.9630798976024
            ],
            [
              -93.0395813071877,
              44.9630599837164
            ]
          ]
        ]
      },
      "properties": {
        "objectid": 21,
        "districtnumber": 4,
        "planningdistrict": "Planning District 4",
        "planningdistrictname": "Dayton's Bluff",
        "councilname": "Dayton's Bluff Community Council",
        "address": "804 Margaret St",
        "zipcode": 55107,
        "website": "http://www.daytonsbluff.org/",
        "email": "info@daytonsbluff.org",
        "phone": "651-772-2075",
        "demographics": "http://www.mncompass.org/profiles/neighborhoods/st-paul/daytons-bluff",
        "crimeincidentreports": "https://information.stpaul.gov/Public-Safety/District-Council-4-Dayton-s-Bluff-Crime-Incidents/6gvt-nqu3",
        "globalid_1": "07cbe61d-6c62-4b42-b7a6-1f8e9f0ffebe",
        "Shape__Area": 79255945.10123444,
        "Shape__Length": 46999.51983616255,
        "district_id": 4
      }
    },
    {
      "type": "Feature",
      "id": 12,
      "geometry": {
        "type": "Polygon",
        "coordinates": [
          [
            [
              -93.187262620746,
              44.9808583185728
            ],
            [
              -93.1873025644533,
              44.9772447987607
            ],
            [
              -93.1822347332974,
              44.9772555228662
            ],
            [
              -93.1771668939453,
              44.9772660183573
            ],
            [
              -93.1771662679739,
              44.9772659380441
            ],
            [
              -93.1720976016647,
              44.9772861731775
            ],
            [
              -93.1721062923113,
              44.9749202803885
            ],
            [
              -93.1670377771624,
              44.9749107880319
            ],
            [
              -93.1670422971097,
              44.9737090622946
            ],
            [
              -93.1670551744383,
              44.9702850693346
            ],
            [
              -93.1670553925848,
              44.9702270621669
            ],
            [
              -93.1744150330538,
              44.9711910996178
            ],
            [
              -93.1873206410321,
              44.9723679634826
            ],
            [
              -93.1873633303866,
              44.9598405771856
            ],
            [
              -93.1873819334664,
              44.9543797028373
            ],
            [
              -93.2015128907779,
              44.9599693104739
            ],
            [
              -93.2077704267945,
              44.9597252669947
            ],
            [
              -93.2077748182667,
              44.9628058894571
            ],
            [
              -93.207742795545,
              44.9664145923717
            ],
            [
              -93.2077107699428,
              44.9700233354457
            ],
            [
              -93.2076901250085,
              44.9736204810592
            ],
            [
              -93.2076697182294,
              44.9772176671913
            ],
            [
              -93.2076415178723,
              44.9808357091379
            ],
            [
              -93.207613312701,
              44.9844537479832
            ],
            [
              -93.2075848655534,
              44.9880709708295
            ],
            [
              -93.2024838342904,
              44.9880741896783
            ],
            [
              -93.1973825615666,
              44.9880771793168
            ],
            [
              -93.1922827306492,
              44.9880816575468
            ],
            [
              -93.187182658192,
              44.9880858643621
            ],
            [
              -93.187223005471,
              44.9844718367567
            ],
            [
              -93.187262620746,
              44.9808583185728
            ]
          ]
        ]
      },
      "properties": {
        "objectid": 22,
        "districtnumber": 12,
        "planningdistrict": "Planning District 12",
        "planningdistrictname": "Saint Anthony Park",
        "councilname": "St. Anthony Park Community Council",
        "address": "2171 University Avenue West, Suite 400",
        "zipcode": null,
        "website": "http://www.sapcc.org/",
        "email": "info@sapcc.org",
        "phone": "651-649-5992",
        "demographics": "http://www.mncompass.org/profiles/neighborhoods/st-paul/st-anthony-park",
        "crimeincidentreports": "https://information.stpaul.gov/Public-Safety/District-Council-12-St-Anthony-Crime-Incidents/pmnz-9d4t",
        "globalid_1": "a6e6cc69-b4cd-4c5a-a582-837b1ac36237",
        "Shape__Area": 67998601.352005,
        "Shape__Length": 45058.405413411296,
        "district_id": 12
      }
    },
    {
      "type": "Feature",
      "id": 10,
      "geometry": {
        "type": "Polygon",
        "coordinates": [
          [
            [
              -93.1261001783012,
              44.9917945681858
            ],
            [
              -93.1262872294285,
              44.9773378743802
            ],
            [
              -93.1262431846643,
              44.9657980600285
            ],
            [
              -93.1417294504738,
              44.96671434515
            ],
            [
              -93.1465875610113,
              44.9674696109477
            ],
            [
              -93.1670551744383,
              44.9702850693346
            ],
            [
              -93.1670377771624,
              44.9749107880319
            ],
            [
              -93.1721062923113,
              44.9749202803885
            ],
            [
              -93.1720976016647,
              44.9772861731775
            ],
            [
              -93.1720861716259,
              44.9772862186098
            ],
            [
              -93.1670785820226,
              44.97729216752
            ],
            [
              -93.1669678448615,
              44.9809186755588
            ],
            [
              -93.166929614632,
              44.9845310335497
            ],
            [
              -93.1668858062825,
              44.9881479218516
            ],
            [
              -93.1617515224177,
              44.9881889389034
            ],
            [
              -93.1566172310808,
              44.988229767346
            ],
            [
              -93.156554918318,
              44.991840829119
            ],
            [
              -93.1515095663423,
              44.9919083030824
            ],
            [
              -93.1464642038146,
              44.9919755531927
            ],
            [
              -93.1413596106542,
              44.9919360516786
            ],
            [
              -93.136254782147,
              44.9918963646095
            ],
            [
              -93.1311768247431,
              44.9918451090578
            ],
            [
              -93.1261001783012,
              44.9917945681858
            ]
          ]
        ]
      },
      "properties": {
        "objectid": 23,
        "districtnumber": 10,
        "planningdistrict": "Planning District 10",
        "planningdistrictname": "Como Park",
        "councilname": "District 10 Como Community Council",
        "address": "1224 Lexington Pkwy N",
        "zipcode": 55108,
        "website": "http://www.district10comopark.org/",
        "email": "district10@district10comopark.org",
        "phone": "651-644-3889",
        "demographics": "http://www.mncompass.org/profiles/neighborhoods/st-paul/como",
        "crimeincidentreports": "https://information.stpaul.gov/Public-Safety/District-Council-10-Como-Crime-Incidents/75bd-g4jr",
        "globalid_1": "4f448457-117e-48a7-9eee-d9075fab0ea0",
        "Shape__Area": 90704615.81093597,
        "Shape__Length": 41157.97857668962,
        "district_id": 10
      }
    },
    {
      "type": "Feature",
      "id": 6,
      "geometry": {
        "type": "Polygon",
        "coordinates": [
          [
            [
              -93.0892784072068,
              44.991806786807
            ],
            [
              -93.0886820698109,
              44.9811840753639
            ],
            [
              -93.0887314556583,
              44.9715451393613
            ],
            [
              -93.0889286162326,
              44.9703916747569
            ],
            [
              -93.0907679285105,
              44.9659841507333
            ],
            [
              -93.0909427321759,
              44.9635254545631
            ],
            [
              -93.0925222656719,
              44.9637496769271
            ],
            [
              -93.0936552874399,
              44.9637376308669
            ],
            [
              -93.094832270215,
              44.9635564428612
            ],
            [
              -93.0963535870898,
              44.9632263760369
            ],
            [
              -93.1063972474603,
              44.9630612735402
            ],
            [
              -93.1085625650756,
              44.9633549324218
            ],
            [
              -93.1161285520217,
              44.9651416922389
            ],
            [
              -93.1262431846643,
              44.9657980600285
            ],
            [
              -93.1262872294285,
              44.9773378743802
            ],
            [
              -93.1261001783012,
              44.9917945681858
            ],
            [
              -93.1210329925384,
              44.9918000149699
            ],
            [
              -93.1159671062931,
              44.9918061766035
            ],
            [
              -93.1109226022628,
              44.9918367191634
            ],
            [
              -93.1058780930961,
              44.9918669965527
            ],
            [
              -93.1015652381304,
              44.9918563488362
            ],
            [
              -93.0964429108463,
              44.9918434638646
            ],
            [
              -93.0913675132946,
              44.9918175281428
            ],
            [
              -93.0892784072068,
              44.991806786807
            ]
          ]
        ]
      },
      "properties": {
        "objectid": 24,
        "districtnumber": 6,
        "planningdistrict": "Planning District 6",
        "planningdistrictname": "North End",
        "councilname": "North End Neighborhood Organization",
        "address": "171 Front Ave",
        "zipcode": 55117,
        "website": "http://www.nenostpaul.org",
        "email": "ed@nenostpaul.org",
        "phone": "651-488-4485",
        "demographics": "http://www.mncompass.org/profiles/neighborhoods/st-paul/north-end",
        "crimeincidentreports": "https://information.stpaul.gov/Public-Safety/District-Council-6-North-End-Crime-Incidents/pyaz-qref",
        "globalid_1": "40d5cafd-48af-4c84-9b03-7446cdc779a0",
        "Shape__Area": 96965051.82417297,
        "Shape__Length": 38692.5731242103,
        "district_id": 6
      }
    },
    {
      "type": "Feature",
      "id": 3,
      "geometry": {
        "type": "Polygon",
        "coordinates": [
          [
            [
              -93.0568935831142,
              44.9426454402846
            ],
            [
              -93.0512459703725,
              44.9360569896588
            ],
            [
              -93.0494620192243,
              44.9320834861949
            ],
            [
              -93.0495738399231,
              44.9282294408608
            ],
            [
              -93.0519458376995,
              44.9219014383549
            ],
            [
              -93.0502658395636,
              44.9194996271034
            ],
            [
              -93.0551302765568,
              44.9195056705506
            ],
            [
              -93.0602080609219,
              44.9195164438513
            ],
            [
              -93.065286087549,
              44.9195270357961
            ],
            [
              -93.0704026476579,
              44.9195503197941
            ],
            [
              -93.0755194522846,
              44.9195734171484
            ],
            [
              -93.0806740400532,
              44.9196152416573
            ],
            [
              -93.0858286352917,
              44.9196568331569
            ],
            [
              -93.0909102903943,
              44.9196678356851
            ],
            [
              -93.0909349688063,
              44.9232637052824
            ],
            [
              -93.0960325623838,
              44.923287161044
            ],
            [
              -93.0959919474195,
              44.9196786117516
            ],
            [
              -93.0993217091284,
              44.9197073516549
            ],
            [
              -93.1057843791764,
              44.9197631618522
            ],
            [
              -93.110831727105,
              44.9197350536306
            ],
            [
              -93.1143462898248,
              44.919715371996
            ],
            [
              -93.115879069888,
              44.919706764286
            ],
            [
              -93.1202551985733,
              44.9196821470025
            ],
            [
              -93.1209261656051,
              44.919678293262
            ],
            [
              -93.1257698711166,
              44.9196501258228
            ],
            [
              -93.1259732591051,
              44.9196492569246
            ],
            [
              -93.1286285938637,
              44.9196480196437
            ],
            [
              -93.1225327254031,
              44.9225372146047
            ],
            [
              -93.1156245629949,
              44.9243311778639
            ],
            [
              -93.110623928659,
              44.9267326246746
            ],
            [
              -93.1051847423767,
              44.9319231561366
            ],
            [
              -93.1014459891705,
              44.9365897329983
            ],
            [
              -93.0943060789732,
              44.9417755259014
            ],
            [
              -93.0898649864443,
              44.9434025554617
            ],
            [
              -93.0838799069489,
              44.9455948168919
            ],
            [
              -93.0792849658306,
              44.9467623003678
            ],
            [
              -93.07622359779,
              44.947535261625
            ],
            [
              -93.0711257900454,
              44.9475968403959
            ],
            [
              -93.0632802981929,
              44.945237222208
            ],
            [
              -93.0568935831142,
              44.9426454402846
            ]
          ]
        ]
      },
      "properties": {
        "objectid": 25,
        "districtnumber": 3,
        "planningdistrict": "Planning District 3",
        "planningdistrictname": "West Side",
        "councilname": "West Side Community Organization",
        "address": "209 Page St W\r\n",
        "zipcode": 55107,
        "website": "http://www.wsco.org/",
        "email": "info@wsco.org",
        "phone": "651-293-1708",
        "demographics": "http://www.mncompass.org/profiles/neighborhoods/st-paul/west-side",
        "crimeincidentreports": "https://information.stpaul.gov/Public-Safety/District-Council-3-West-Side/8mz6-vngc",
        "globalid_1": "45c7f49e-9f72-4681-b5c2-54bef968021d",
        "Shape__Area": 130609667.19257355,
        "Shape__Length": 54938.81505680743,
        "district_id": 3
      }
    },
    {
      "type": "Feature",
      "id": 16,
      "geometry": {
        "type": "Polygon",
        "coordinates": [
          [
            [
              -93.1466145936829,
              44.9414050384789
            ],
            [
              -93.1179585328619,
              44.9413292398656
            ],
            [
              -93.1122081644008,
              44.94131483288
            ],
            [
              -93.1156764453364,
              44.9399088833162
            ],
            [
              -93.1180309428608,
              44.9390155143621
            ],
            [
              -93.1199631294201,
              44.9382067294632
            ],
            [
              -93.121412184353,
              44.937610820333
            ],
            [
              -93.1223182660778,
              44.93714206153
            ],
            [
              -93.1236475193855,
              44.9363746359612
            ],
            [
              -93.1253402208275,
              44.9351799846849
            ],
            [
              -93.1271535627903,
              44.9339427762345
            ],
            [
              -93.1286647776916,
              44.9328760777008
            ],
            [
              -93.1298126999958,
              44.9321937821188
            ],
            [
              -93.1307783197162,
              44.9318534983877
            ],
            [
              -93.1315624101383,
              44.9316840189322
            ],
            [
              -93.1327078510666,
              44.9315581317467
            ],
            [
              -93.1363985345346,
              44.9315090739546
            ],
            [
              -93.1386192623543,
              44.9314351217294
            ],
            [
              -93.1400923196494,
              44.9310479500541
            ],
            [
              -93.140795463845,
              44.9308640850213
            ],
            [
              -93.1426541967283,
              44.9298879801684
            ],
            [
              -93.1434398322893,
              44.9291290140459
            ],
            [
              -93.143922212674,
              44.92866682925
            ],
            [
              -93.1448333555467,
              44.9308150432167
            ],
            [
              -93.1465003047575,
              44.9318264855269
            ],
            [
              -93.1475373721223,
              44.9322319915718
            ],
            [
              -93.1485324233933,
              44.9327554583353
            ],
            [
              -93.1494990344297,
              44.9334657797566
            ],
            [
              -93.1501748145011,
              44.9341754987104
            ],
            [
              -93.150739013785,
              44.9350817462345
            ],
            [
              -93.1509787609599,
              44.9357789761558
            ],
            [
              -93.1521026598235,
              44.9393316328688
            ],
            [
              -93.1523264551933,
              44.9400210050669
            ],
            [
              -93.1525925163659,
              44.9407657761037
            ],
            [
              -93.1529369965329,
              44.9414505194229
            ],
            [
              -93.1517172177249,
              44.9414464260157
            ],
            [
              -93.1466145936829,
              44.9414050384789
            ]
          ]
        ]
      },
      "properties": {
        "objectid": 26,
        "districtnumber": 16,
        "planningdistrict": "Planning District 16",
        "planningdistrictname": "Summit Hill",
        "councilname": "Summit Hill Association",
        "address": "860 St. Clair Ave W",
        "zipcode": 55105,
        "website": "http://www.summithillassociation.org/",
        "email": "info@summithillassociation.org",
        "phone": "651-222-1222",
        "demographics": "http://www.mncompass.org/profiles/neighborhoods/st-paul/summit-hill",
        "crimeincidentreports": "https://information.stpaul.gov/Public-Safety/District-Council-16-Summit-Hill-Crime-Incidents/icph-yhdk",
        "globalid_1": "20b34bb2-0bb8-4697-98da-0a2a3f0c959e",
        "Shape__Area": 26860162.85798645,
        "Shape__Length": 25745.69000144709,
        "district_id": 16
      }
    },
    {
      "type": "Feature",
      "id": 8,
      "geometry": {
        "type": "Polygon",
        "coordinates": [
          [
            [
              -93.1093306126747,
              44.9548931005535
            ],
            [
              -93.1093233660465,
              44.9539873302751
            ],
            [
              -93.1093882468444,
              44.9533957036654
            ],
            [
              -93.1095263490947,
              44.9530297596793
            ],
            [
              -93.1097289271158,
              44.9526032817471
            ],
            [
              -93.1098594172681,
              44.9521965236059
            ],
            [
              -93.109900667393,
              44.9518742908106
            ],
            [
              -93.1099144288923,
              44.9513666497937
            ],
            [
              -93.1099257165205,
              44.9509531604559
            ],
            [
              -93.1056606104725,
              44.9509332022264
            ],
            [
              -93.1079542117884,
              44.9482926050268
            ],
            [
              -93.1080332898166,
              44.9467639582234
            ],
            [
              -93.1084295247279,
              44.9461391088608
            ],
            [
              -93.1100518671927,
              44.9450772792909
            ],
            [
              -93.1095194088452,
              44.944814474145
            ],
            [
              -93.1085329370802,
              44.9445294633304
            ],
            [
              -93.1137293554505,
              44.9422379310826
            ],
            [
              -93.1147864959067,
              44.9420447333957
            ],
            [
              -93.116120375115,
              44.9415912525408
            ],
            [
              -93.116116436994,
              44.9424392390063
            ],
            [
              -93.1179585328619,
              44.9413292398656
            ],
            [
              -93.1466145936829,
              44.9414050384789
            ],
            [
              -93.1466081857273,
              44.9557276489686
            ],
            [
              -93.1263504065632,
              44.9557187586119
            ],
            [
              -93.1093354537538,
              44.9557827493843
            ],
            [
              -93.1093306126747,
              44.9548931005535
            ]
          ]
        ]
      },
      "properties": {
        "objectid": 27,
        "districtnumber": 8,
        "planningdistrict": "Planning District 8",
        "planningdistrictname": "Summit - University",
        "councilname": "Summit-University Planning Council",
        "address": "375 Selby Ave, Office 9",
        "zipcode": 55104,
        "website": "http://www.summit-university.org/",
        "email": "info@summit-university.org",
        "phone": "651-228-1855",
        "demographics": "http://www.mncompass.org/profiles/neighborhoods/st-paul/summit-university",
        "crimeincidentreports": "https://information.stpaul.gov/Public-Safety/District-Council-8-Summit-University-Crime-Inciden/psv5-gz3n",
        "globalid_1": "284d38e4-4447-4e59-a280-cf3a372f16c9",
        "Shape__Area": 50389409.880340576,
        "Shape__Length": 31314.458144950415,
        "district_id": 8
      }
    },
    {
      "type": "Feature",
      "id": 7,
      "geometry": {
        "type": "Polygon",
        "coordinates": [
          [
            [
              -93.1262431846643,
              44.9657980600285
            ],
            [
              -93.1161285520217,
              44.9651416922389
            ],
            [
              -93.1085625650756,
              44.9633549324218
            ],
            [
              -93.1063972474603,
              44.9630612735402
            ],
            [
              -93.0963535870898,
              44.9632263760369
            ],
            [
              -93.094832270215,
              44.9635564428612
            ],
            [
              -93.0936552874399,
              44.9637376308669
            ],
            [
              -93.0925222656719,
              44.9637496769271
            ],
            [
              -93.0909427321759,
              44.9635254545631
            ],
            [
              -93.0908588608973,
              44.9578630516988
            ],
            [
              -93.0920438746181,
              44.957871859738
            ],
            [
              -93.0924088305564,
              44.9578442219443
            ],
            [
              -93.0927575328714,
              44.957795020008
            ],
            [
              -93.0936172996141,
              44.9575749394735
            ],
            [
              -93.0959358842841,
              44.9564439353237
            ],
            [
              -93.0970044996707,
              44.9559755071779
            ],
            [
              -93.0973941936167,
              44.9558652115634
            ],
            [
              -93.1059054786215,
              44.955825791596
            ],
            [
              -93.1059099473857,
              44.9548991758675
            ],
            [
              -93.1093306126747,
              44.9548931005535
            ],
            [
              -93.1093354537538,
              44.9557827493843
            ],
            [
              -93.1263504065632,
              44.9557187586119
            ],
            [
              -93.1466081857273,
              44.9557276489686
            ],
            [
              -93.1465875610113,
              44.9674696109477
            ],
            [
              -93.1417294504738,
              44.96671434515
            ],
            [
              -93.1262431846643,
              44.9657980600285
            ]
          ]
        ]
      },
      "properties": {
        "objectid": 28,
        "districtnumber": 7,
        "planningdistrict": "Planning District 7",
        "planningdistrictname": "Frogtown",
        "councilname": "Frogtown Neighborhood Association",
        "address": "501 Dale St N, Suite 300",
        "zipcode": 55117,
        "website": "http://www.frogtownmn.org",
        "email": "caty@frogtownmn.org",
        "phone": "651-236-8699",
        "demographics": "http://www.mncompass.org/profiles/neighborhoods/st-paul/frogtown-thomas-dale",
        "crimeincidentreports": "https://information.stpaul.gov/Public-Safety/District-Council-7-Thomas-Dale-Frogtown-Crime-Inci/ejtf-v4ac",
        "globalid_1": "2ef0c424-1d9e-45fa-9204-13f567b09e02",
        "Shape__Area": 47882639.822250366,
        "Shape__Length": 36247.55780976037,
        "district_id": 7
      }
    },
    {
      "type": "Feature",
      "id": 9,
      "geometry": {
        "type": "Polygon",
        "coordinates": [
          [
            [
              -93.1027170479451,
              44.9445821701196
            ],
            [
              -93.1016101563414,
              44.9432129888036
            ],
            [
              -93.1012471927098,
              44.9427740009948
            ],
            [
              -93.10119807008,
              44.9426093035602
            ],
            [
              -93.1011705200682,
              44.9420780610826
            ],
            [
              -93.1011392798797,
              44.941795862179
            ],
            [
              -93.1010558121632,
              44.9415501724528
            ],
            [
              -93.1008722823969,
              44.9413191186711
            ],
            [
              -93.0998482591939,
              44.9405934422428
            ],
            [
              -93.0987788916703,
              44.9411278461313
            ],
            [
              -93.0978490090684,
              44.9415665678276
            ],
            [
              -93.0970306110318,
              44.9419156384778
            ],
            [
              -93.0964249151753,
              44.942149044271
            ],
            [
              -93.0959515537174,
              44.9423292614624
            ],
            [
              -93.0952542791812,
              44.9425714472885
            ],
            [
              -93.0946977358533,
              44.9427350627646
            ],
            [
              -93.0943060789732,
              44.9417755259014
            ],
            [
              -93.1014459891705,
              44.9365897329983
            ],
            [
              -93.1051847423767,
              44.9319231561366
            ],
            [
              -93.110623928659,
              44.9267326246746
            ],
            [
              -93.1156245629949,
              44.9243311778639
            ],
            [
              -93.1225327254031,
              44.9225372146047
            ],
            [
              -93.1286285938637,
              44.9196480196437
            ],
            [
              -93.1312240434422,
              44.9160230591121
            ],
            [
              -93.1325755777099,
              44.9124073091485
            ],
            [
              -93.1336664917085,
              44.9087767856366
            ],
            [
              -93.136513207429,
              44.9051474942967
            ],
            [
              -93.1385920071578,
              44.9039037181203
            ],
            [
              -93.1427890391188,
              44.9084362800554
            ],
            [
              -93.1438985456962,
              44.9109109216643
            ],
            [
              -93.1452042214816,
              44.910204582097
            ],
            [
              -93.1495122054335,
              44.9073181129735
            ],
            [
              -93.1536753015543,
              44.9051401581802
            ],
            [
              -93.1542898083148,
              44.9057878257891
            ],
            [
              -93.1556580456509,
              44.908692292327
            ],
            [
              -93.1528162137667,
              44.9100144265235
            ],
            [
              -93.1445453723995,
              44.91562948275
            ],
            [
              -93.1449053021651,
              44.9221996129805
            ],
            [
              -93.1450334986434,
              44.9249187414413
            ],
            [
              -93.1448313270056,
              44.9269318283294
            ],
            [
              -93.143922212674,
              44.92866682925
            ],
            [
              -93.1434398322893,
              44.9291290140459
            ],
            [
              -93.1426541967283,
              44.9298879801684
            ],
            [
              -93.140795463845,
              44.9308640850213
            ],
            [
              -93.1400923196494,
              44.9310479500541
            ],
            [
              -93.1386192623543,
              44.9314351217294
            ],
            [
              -93.1363985345346,
              44.9315090739546
            ],
            [
              -93.1327078510666,
              44.9315581317467
            ],
            [
              -93.1315624101383,
              44.9316840189322
            ],
            [
              -93.1307783197162,
              44.9318534983877
            ],
            [
              -93.1298126999958,
              44.9321937821188
            ],
            [
              -93.1286647776916,
              44.9328760777008
            ],
            [
              -93.1271535627903,
              44.9339427762345
            ],
            [
              -93.1253402208275,
              44.9351799846849
            ],
            [
              -93.1236475193855,
              44.9363746359612
            ],
            [
              -93.1223182660778,
              44.93714206153
            ],
            [
              -93.121412184353,
              44.937610820333
            ],
            [
              -93.1199631294201,
              44.9382067294632
            ],
            [
              -93.1180309428608,
              44.9390155143621
            ],
            [
              -93.1156764453364,
              44.9399088833162
            ],
            [
              -93.1122081644008,
              44.94131483288
            ],
            [
              -93.1122918994194,
              44.941315044467
            ],
            [
              -93.1179585328619,
              44.9413292398656
            ],
            [
              -93.116116436994,
              44.9424392390063
            ],
            [
              -93.116120375115,
              44.9415912525408
            ],
            [
              -93.1147864959067,
              44.9420447333957
            ],
            [
              -93.1137293554505,
              44.9422379310826
            ],
            [
              -93.1085329370802,
              44.9445294633304
            ],
            [
              -93.1079917159715,
              44.9443555003744
            ],
            [
              -93.1078117895574,
              44.9442435113055
            ],
            [
              -93.1070669153112,
              44.9448218280509
            ],
            [
              -93.1062421508711,
              44.9454404381736
            ],
            [
              -93.1052637811494,
              44.9461360965162
            ],
            [
              -93.1046927052695,
              44.9465422415786
            ],
            [
              -93.1043067651951,
              44.9468200885753
            ],
            [
              -93.1040749676624,
              44.946156165642
            ],
            [
              -93.1038476421828,
              44.9454159952464
            ],
            [
              -93.1034590607751,
              44.9450313030719
            ],
            [
              -93.1027170479451,
              44.9445821701196
            ]
          ]
        ]
      },
      "properties": {
        "objectid": 29,
        "districtnumber": 9,
        "planningdistrict": "Planning District 9",
        "planningdistrictname": "West Seventh - Fort Road",
        "councilname": "West 7th St / Fort Road Federation",
        "address": "395 Superior Street",
        "zipcode": 55102,
        "website": "http://www.fortroadfederation.org/",
        "email": "fortroadfed@fortroadfederation.org",
        "phone": "651-298-5599",
        "demographics": "http://www.mncompass.org/profiles/neighborhoods/st-paul/west-seventh",
        "crimeincidentreports": "https://information.stpaul.gov/Public-Safety/District-Council-9-West-Seventh-Crime-Incidents/gsms-9rp5",
        "globalid_1": "436eed15-fc76-4fea-affa-7ddbe985ea03",
        "Shape__Area": 76807143.25068665,
        "Shape__Length": 55520.30374681737,
        "district_id": 9
      }
    },
    {
      "type": "Feature",
      "id": 17,
      "geometry": {
        "type": "Polygon",
        "coordinates": [
          [
            [
              -93.0862050277752,
              44.9520133720967
            ],
            [
              -93.0848602036597,
              44.9519302576665
            ],
            [
              -93.083457049769,
              44.9522847965057
            ],
            [
              -93.0825579314302,
              44.9527202521998
            ],
            [
              -93.0792849658306,
              44.9467623003678
            ],
            [
              -93.0838799069489,
              44.9455948168919
            ],
            [
              -93.0898649864443,
              44.9434025554617
            ],
            [
              -93.0943060789732,
              44.9417755259014
            ],
            [
              -93.0946977358533,
              44.9427350627646
            ],
            [
              -93.0952542791812,
              44.9425714472885
            ],
            [
              -93.0959515537174,
              44.9423292614624
            ],
            [
              -93.0964249151753,
              44.942149044271
            ],
            [
              -93.0970306110318,
              44.9419156384778
            ],
            [
              -93.0978490090684,
              44.9415665678276
            ],
            [
              -93.0987788916703,
              44.9411278461313
            ],
            [
              -93.0998482591939,
              44.9405934422428
            ],
            [
              -93.1008722823969,
              44.9413191186711
            ],
            [
              -93.1010558121632,
              44.9415501724528
            ],
            [
              -93.1011392798797,
              44.941795862179
            ],
            [
              -93.1011705200682,
              44.9420780610826
            ],
            [
              -93.10119807008,
              44.9426093035602
            ],
            [
              -93.1012471927098,
              44.9427740009948
            ],
            [
              -93.1027170479451,
              44.9445821701196
            ],
            [
              -93.1034590607751,
              44.9450313030719
            ],
            [
              -93.1038476421828,
              44.9454159952464
            ],
            [
              -93.1040749676624,
              44.946156165642
            ],
            [
              -93.1043067651951,
              44.9468200885753
            ],
            [
              -93.1046927052695,
              44.9465422415786
            ],
            [
              -93.1052637811494,
              44.9461360965162
            ],
            [
              -93.1062421508711,
              44.9454404381736
            ],
            [
              -93.1070669153112,
              44.9448218280509
            ],
            [
              -93.1078117895574,
              44.9442435113055
            ],
            [
              -93.1078635319749,
              44.9442757162333
            ],
            [
              -93.1079917159715,
              44.9443555003744
            ],
            [
              -93.1085329370802,
              44.9445294633304
            ],
            [
              -93.109533628873,
              44.9448232040228
            ],
            [
              -93.1100518671927,
              44.9450772792909
            ],
            [
              -93.1084295247279,
              44.9461391088608
            ],
            [
              -93.1080332898166,
              44.9467639582234
            ],
            [
              -93.1079542117884,
              44.9482926050268
            ],
            [
              -93.1056606104725,
              44.9509332022264
            ],
            [
              -93.1099257165205,
              44.9509531604559
            ],
            [
              -93.1099144288923,
              44.9513666497937
            ],
            [
              -93.109900667393,
              44.9518742908106
            ],
            [
              -93.1098594172681,
              44.9521965236059
            ],
            [
              -93.1097289271158,
              44.9526032817471
            ],
            [
              -93.1095263490947,
              44.9530297596793
            ],
            [
              -93.1093882468444,
              44.9533957036654
            ],
            [
              -93.1093233660465,
              44.9539873302751
            ],
            [
              -93.1093306126747,
              44.9548931005535
            ],
            [
              -93.1059099473857,
              44.9548991758675
            ],
            [
              -93.1059054786215,
              44.955825791596
            ],
            [
              -93.0973941936167,
              44.9558652115634
            ],
            [
              -93.0970044996707,
              44.9559755071779
            ],
            [
              -93.0959358842841,
              44.9564439353237
            ],
            [
              -93.0936172996141,
              44.9575749394735
            ],
            [
              -93.0927575328714,
              44.957795020008
            ],
            [
              -93.0924088305564,
              44.9578442219443
            ],
            [
              -93.0920438746181,
              44.957871859738
            ],
            [
              -93.0908588608973,
              44.9578630516988
            ],
            [
              -93.0913984330491,
              44.9558477727396
            ],
            [
              -93.091371423059,
              44.9557500538255
            ],
            [
              -93.0910681671909,
              44.954652866448
            ],
            [
              -93.0901188993742,
              44.9539339950329
            ],
            [
              -93.0880510514948,
              44.9527346008701
            ],
            [
              -93.0862050277752,
              44.9520133720967
            ]
          ]
        ]
      },
      "properties": {
        "objectid": 30,
        "districtnumber": 17,
        "planningdistrict": "Planning District 17",
        "planningdistrictname": "Downtown",
        "councilname": "CapitolRiver Council",
        "address": "423 Landmark Center, 75 West 5th Street",
        "zipcode": 55102,
        "website": "http://www.capitolrivercouncil.org/",
        "email": "office@capitolrivercouncil.org",
        "phone": "651-221-0488",
        "demographics": "http://www.mncompass.org/profiles/neighborhoods/st-paul/downtown",
        "crimeincidentreports": "https://information.stpaul.gov/Public-Safety/District-Council-17-Capital-River-Crime-Incidents/rkwd-gu2v",
        "globalid_1": "d906f9f8-e6d0-48fc-b68d-27af8875cf47",
        "Shape__Area": 29002518.25543976,
        "Shape__Length": 27340.344264657568,
        "district_id": 17
      }
    },
    {
      "type": "Feature",
      "id": 5,
      "geometry": {
        "type": "Polygon",
        "coordinates": [
          [
            [
              -93.0448778903448,
              44.9920052061263
            ],
            [
              -93.0455224874561,
              44.9791887861501
            ],
            [
              -93.0455559522741,
              44.9750337533422
            ],
            [
              -93.0459890858062,
              44.9726744677391
            ],
            [
              -93.0470734808133,
              44.9711508427815
            ],
            [
              -93.0486347904894,
              44.9697982547881
            ],
            [
              -93.0509149135611,
              44.96810844646
            ],
            [
              -93.0541181486673,
              44.9673618953819
            ],
            [
              -93.0573258687953,
              44.9667042331057
            ],
            [
              -93.0610459613642,
              44.9658990756225
            ],
            [
              -93.0631431588328,
              44.9658275740002
            ],
            [
              -93.0675530186603,
              44.966155433782
            ],
            [
              -93.0681642988947,
              44.9663357496554
            ],
            [
              -93.0688919607044,
              44.9667069170574
            ],
            [
              -93.069645313781,
              44.9669828824548
            ],
            [
              -93.0703410004996,
              44.9670681515445
            ],
            [
              -93.0709703990744,
              44.9670043799559
            ],
            [
              -93.0715837310456,
              44.9668095689574
            ],
            [
              -93.07213941345,
              44.9664181084938
            ],
            [
              -93.0724097977511,
              44.9660496862668
            ],
            [
              -93.0725461790325,
              44.965645172603
            ],
            [
              -93.0725316564309,
              44.9652283398285
            ],
            [
              -93.072337484836,
              44.9639119340342
            ],
            [
              -93.0724514636189,
              44.9628252595778
            ],
            [
              -93.0728666575347,
              44.9622104754708
            ],
            [
              -93.0732040443843,
              44.9618541415008
            ],
            [
              -93.0737515368044,
              44.9614150176714
            ],
            [
              -93.0744655013047,
              44.9612085561138
            ],
            [
              -93.0756868456616,
              44.9610527325808
            ],
            [
              -93.0763217219734,
              44.9606836417472
            ],
            [
              -93.0769115231088,
              44.960167211559
            ],
            [
              -93.0771483975012,
              44.9597808249251
            ],
            [
              -93.0773187188547,
              44.9592930381745
            ],
            [
              -93.0774131882845,
              44.9572986356448
            ],
            [
              -93.0771529540377,
              44.9557736630101
            ],
            [
              -93.091371423059,
              44.9557500538255
            ],
            [
              -93.0913984330491,
              44.9558477727396
            ],
            [
              -93.0908588608973,
              44.9578630516988
            ],
            [
              -93.0909427321759,
              44.9635254545631
            ],
            [
              -93.0907679285105,
              44.9659841507333
            ],
            [
              -93.0889286162326,
              44.9703916747569
            ],
            [
              -93.0887314556583,
              44.9715451393613
            ],
            [
              -93.0886820698109,
              44.9811840753639
            ],
            [
              -93.0892784072068,
              44.991806786807
            ],
            [
              -93.0862918794195,
              44.9917913652762
            ],
            [
              -93.0812498484448,
              44.9918530861515
            ],
            [
              -93.0762075642365,
              44.9919146269027
            ],
            [
              -93.0711644451813,
              44.9919497593512
            ],
            [
              -93.0661213199817,
              44.9919846690421
            ],
            [
              -93.0610157560799,
              44.9919955248113
            ],
            [
              -93.0559101915383,
              44.9920061522765
            ],
            [
              -93.0508046404986,
              44.992013894358
            ],
            [
              -93.0456991185433,
              44.992016009399
            ],
            [
              -93.0448778903448,
              44.9920052061263
            ]
          ]
        ]
      },
      "properties": {
        "objectid": 31,
        "districtnumber": 5,
        "planningdistrict": "Planning District 5",
        "planningdistrictname": "Payne - Phalen",
        "councilname": "Payne-Phalen District 5 Planning Council",
        "address": "567 Payne Ave",
        "zipcode": 55130,
        "website": "http://www.paynephalen.org/",
        "email": "director@paynephalen.org",
        "phone": "651-774-5234",
        "demographics": "http://www.mncompass.org/profiles/neighborhoods/st-paul/payne-phalen",
        "crimeincidentreports": "https://information.stpaul.gov/Public-Safety/District-Council-5-Payne-Phalen-Crime-Incidents/4yjx-j4rf",
        "globalid_1": "425b4bbe-9db5-4f86-8e2a-41428294eacd",
        "Shape__Area": 118753998.51981354,
        "Shape__Length": 47914.16025821197,
        "district_id": 5
      }
    },
    {
      "type": "Feature",
      "id": 2,
      "geometry": {
        "type": "Polygon",
        "coordinates": [
          [
            [
              -93.0050502494359,
              44.9630445050886
            ],
            [
              -93.0395813071877,
              44.9630599837164
            ],
            [
              -93.0459530585297,
              44.9630798976024
            ],
            [
              -93.045944658053,
              44.9645119949844
            ],
            [
              -93.0456524788024,
              44.9651930935556
            ],
            [
              -93.0451693731499,
              44.965669037284
            ],
            [
              -93.04497283835,
              44.9664186138455
            ],
            [
              -93.0449583945985,
              44.9688736361362
            ],
            [
              -93.0449515735077,
              44.9700329521492
            ],
            [
              -93.0448534985565,
              44.9703736424248
            ],
            [
              -93.044175790757,
              44.9712581809493
            ],
            [
              -93.0439808348264,
              44.9717349752654
            ],
            [
              -93.0439764082401,
              44.9724851205024
            ],
            [
              -93.0440672503748,
              44.973371940707
            ],
            [
              -93.0445719554762,
              44.9743548276323
            ],
            [
              -93.0447931870882,
              44.974573449617
            ],
            [
              -93.0455559522741,
              44.9750337533422
            ],
            [
              -93.0455224874561,
              44.9791887861501
            ],
            [
              -93.0448778903448,
              44.9920052061263
            ],
            [
              -93.0405784875718,
              44.9919995514605
            ],
            [
              -93.0354581004749,
              44.9919828654989
            ],
            [
              -93.0303398918539,
              44.9919658270563
            ],
            [
              -93.0252216860182,
              44.9919486023635
            ],
            [
              -93.0201322924692,
              44.9919594379785
            ],
            [
              -93.0150431382258,
              44.9919700043169
            ],
            [
              -93.0100537552451,
              44.991979684769
            ],
            [
              -93.005064610268,
              44.99198914708
            ],
            [
              -93.0050758283101,
              44.9883751032087
            ],
            [
              -93.0050872871068,
              44.9847610579212
            ],
            [
              -93.0050985045685,
              44.9811466668078
            ],
            [
              -93.0051099617707,
              44.9775322311122
            ],
            [
              -93.0051212352971,
              44.9739088800309
            ],
            [
              -93.0051325074088,
              44.9702855258775
            ],
            [
              -93.0050913632946,
              44.9666649958228
            ],
            [
              -93.0050502494359,
              44.9630445050886
            ]
          ]
        ]
      },
      "properties": {
        "objectid": 32,
        "districtnumber": 2,
        "planningdistrict": "Planning District 2",
        "planningdistrictname": "Greater East Side",
        "councilname": "Greater East Side Community Council",
        "address": "1365 Prosperity Ave",
        "zipcode": 55106,
        "website": "http://www.greatereastsidesp.org",
        "email": "info@greatereastsidesp.org",
        "phone": "651-774-2200",
        "demographics": "http://www.mncompass.org/profiles/neighborhoods/st-paul/greater-east-side",
        "crimeincidentreports": "https://information.stpaul.gov/Public-Safety/District-Council-2-Greater-East-Side-Crime-Inciden/4vvv-6zjd",
        "globalid_1": "8db92df3-438c-4c26-9639-88624c6abff4",
        "Shape__Area": 109234865.71031189,
        "Shape__Length": 42236.99339135576,
        "district_id": 2
      }
    },
    {
      "type": "Feature",
      "id": 1,
      "geometry": {
        "type": "Polygon",
        "coordinates": [
          [
            [
              -93.0502658395636,
              44.9194996271034
            ],
            [
              -93.0519458376995,
              44.9219014383549
            ],
            [
              -93.0495738399231,
              44.9282294408608
            ],
            [
              -93.0494620192243,
              44.9320834861949
            ],
            [
              -93.0512459703725,
              44.9360569896588
            ],
            [
              -93.0568935831142,
              44.9426454402846
            ],
            [
              -93.0405162326247,
              44.9472617616807
            ],
            [
              -93.0409037712574,
              44.9527631385625
            ],
            [
              -93.0394553034279,
              44.9539952642129
            ],
            [
              -93.0394934334968,
              44.9576621846744
            ],
            [
              -93.03631052913,
              44.9576951855643
            ],
            [
              -93.0362945809521,
              44.9603386475067
            ],
            [
              -93.039597482823,
              44.9603486447198
            ],
            [
              -93.0395813071877,
              44.9630599837164
            ],
            [
              -93.0050502494359,
              44.9630445050886
            ],
            [
              -93.0050386720331,
              44.9594410400639
            ],
            [
              -93.0050271224148,
              44.9558376153261
            ],
            [
              -93.0050148426692,
              44.9522352136701
            ],
            [
              -93.0050025657286,
              44.9486328099562
            ],
            [
              -93.0049517735328,
              44.9446476363742
            ],
            [
              -93.0049056950673,
              44.9410477301683
            ],
            [
              -93.0048647321271,
              44.9374415824772
            ],
            [
              -93.0048238781003,
              44.9338356400664
            ],
            [
              -93.0048218632492,
              44.9302369105822
            ],
            [
              -93.0048199518546,
              44.9266384719103
            ],
            [
              -93.004818036474,
              44.923040673737
            ],
            [
              -93.0048161213328,
              44.9194428736227
            ],
            [
              -93.0047170020104,
              44.9158422203609
            ],
            [
              -93.0046178960689,
              44.9122416082916
            ],
            [
              -93.004548867623,
              44.9086541216932
            ],
            [
              -93.0044800880586,
              44.9050666771691
            ],
            [
              -93.0044059058866,
              44.9014951962387
            ],
            [
              -93.0043317341765,
              44.8979237143345
            ],
            [
              -93.0043261040215,
              44.8943453867922
            ],
            [
              -93.0043202343408,
              44.8907670143504
            ],
            [
              -93.0093859467483,
              44.8907616789748
            ],
            [
              -93.014451659469,
              44.8907561175469
            ],
            [
              -93.0178257461175,
              44.8907523752249
            ],
            [
              -93.0183873698535,
              44.8907517319764
            ],
            [
              -93.0195055537748,
              44.8907504642038
            ],
            [
              -93.0200442695636,
              44.8907498260421
            ],
            [
              -93.0246067112308,
              44.8940738462806
            ],
            [
              -93.0347327741056,
              44.8978309867921
            ],
            [
              -93.0421252578605,
              44.9051006733362
            ],
            [
              -93.0451790021088,
              44.9123069861265
            ],
            [
              -93.0502658395636,
              44.9194996271034
            ]
          ]
        ]
      },
      "properties": {
        "objectid": 33,
        "districtnumber": 1,
        "planningdistrict": "Planning District 1",
        "planningdistrictname": "Battle Creek - Conway - Eastview - Highwood Hills",
        "councilname": "Southeast Community Organization",
        "address": "2105 1/2 Old Hudson Rd",
        "zipcode": 55119,
        "website": "http://www.southeastside.org",
        "email": "betsy@southeastside.org",
        "phone": "651-578-7600",
        "demographics": "http://www.mncompass.org/profiles/neighborhoods/st-paul/battle-creek-highwood",
        "crimeincidentreports": "https://information.stpaul.gov/Public-Safety/District-Council-1-Conway-Battlecreek-Highwood-Cri/fc3v-h6bg",
        "globalid_1": "9fdb5ec4-968a-4210-bf0f-ba0f6081e34e",
        "Shape__Area": 266130339.07837677,
        "Shape__Length": 74201.26716682047,
        "district_id": 1
      }
    },
    {
      "type": "Feature",
      "id": 13,
      "geometry": {
        "type": "Polygon",
        "coordinates": [
          [
            [
              -93.1873633303866,
              44.9598405771856
            ],
            [
              -93.1772431680817,
              44.9558552161881
            ],
            [
              -93.1761922944453,
              44.9556496712893
            ],
            [
              -93.1466081857273,
              44.9557276489686
            ],
            [
              -93.1466145936829,
              44.9414050384789
            ],
            [
              -93.1517172177249,
              44.9414464260157
            ],
            [
              -93.1529369965329,
              44.9414505194229
            ],
            [
              -93.200450790215,
              44.9415039822463
            ],
            [
              -93.2016020147043,
              44.9451047729504
            ],
            [
              -93.2026353003342,
              44.9483361820912
            ],
            [
              -93.2050183296245,
              44.9519615911306
            ],
            [
              -93.2077512217809,
              44.9530560593493
            ],
            [
              -93.2077587979338,
              44.9532629665643
            ],
            [
              -93.2077609627467,
              44.9541355908402
            ],
            [
              -93.2077642773298,
              44.9555806926337
            ],
            [
              -93.2077696677973,
              44.959193313876
            ],
            [
              -93.2077704267945,
              44.9597252669947
            ],
            [
              -93.2015128907779,
              44.9599693104739
            ],
            [
              -93.1873819334664,
              44.9543797028373
            ],
            [
              -93.1873633303866,
              44.9598405771856
            ]
          ]
        ]
      },
      "properties": {
        "objectid": 34,
        "districtnumber": 13,
        "planningdistrict": "Planning District 13",
        "planningdistrictname": "Union Park",
        "councilname": "Union Park District Council",
        "address": "1600 University Ave West, Suite 301",
        "zipcode": 55104,
        "website": "http://www.unionparkdc.org/",
        "email": "info@unionparkdc.org",
        "phone": "651-645-6887",
        "demographics": "http://www.mncompass.org/profiles/neighborhoods/st-paul/union-park",
        "crimeincidentreports": "https://information.stpaul.gov/Public-Safety/District-Council-13-Union-Park-Crime-Incidents/c8kf-2anb",
        "globalid_1": "b5fd2f21-868a-4108-9ca1-d439cd3a304f",
        "Shape__Area": 83056775.95680237,
        "Shape__Length": 45159.64449780222,
        "district_id": 13
      }
    }
  ]
}