{"type": "FeatureCollection", "features": [{"type": "Feature", "properties": {"city": "mpls"}, "geometry": {"type": "Polygon", "coordinates": [[[-93.2751686295659, 44.8906622912313], [-93.2755249499166, 44.8906597385674], [-93.2762456350314, 44.8906545715067], [-93.2762584171596, 44.8906544804993], [-93.2762647206379, 44.8906544346773], [-93.2764218359811, 44.8906533082211], [-93.2768271432609, 44.8906504004366], [-93.2769000505293, 44.8906498773027], [-93.2769627044271, 44.8906494273566], [-93.2772982072195, 44.8906470185221], [-93.278106847282, 44.8906412099529], [-93.2781074240005, 44.8906412067709], [-93.2781092044613, 44.8906411978611], [-93.2781180995793, 44.8906411526755], [-93.2800967494853, 44.8906310463874], [-93.2806726297696, 44.8906280985076], [-93.2806800453622, 44.8906280596862], [-93.2831905688834, 44.8906151754385], [-93.288293637501, 44.8905888144306], [-93.2883251477063, 44.8905886508715], [-93.2883309400432, 44.8905886209599], [-93.2883313272171, 44.8905886196871], [-93.2883527637147, 44.8905885076778], [-93.291682234568, 44.8906132929189], [-93.2917806827367, 44.8906140228885], [-93.2931734550077, 44.890624360835], [-93.2934194631398, 44.8906261860769], [-93.2944317737352, 44.8906336849689], [-93.2950990593962, 44.8906386248308], [-93.2951412056544, 44.8906389379475], [-93.2952811137683, 44.8906399721237], [-93.2955442563662, 44.8906419195569], [-93.2955647011237, 44.8906420716603], [-93.2956412447724, 44.8906426380706], [-93.2956482803777, 44.8906426896203], [-93.2956868702057, 44.8906429753711], [-93.2957187927377, 44.8906432121179], [-93.2957199264115, 44.8906432203913], [-93.2959930394108, 44.8906452403758], [-93.2969888937684, 44.8906526024358], [-93.2985020708302, 44.8906637715346], [-93.3001456203892, 44.8906758812535], [-93.3016547631171, 44.8906869797055], [-93.3017485139951, 44.8906876676708], [-93.3020045033083, 44.8906895482787], [-93.3024335988751, 44.8906926985355], [-93.3035824183594, 44.8907011246761], [-93.3048252339617, 44.8907102285977], [-93.3048375274064, 44.8907103189687], [-93.3048794481874, 44.8907106269937], [-93.3063497747118, 44.8907213792292], [-93.3068692587626, 44.8907251754456], [-93.3073974591665, 44.890729030212], [-93.3086565405636, 44.8907382117719], [-93.3086567274132, 44.8907382130447], [-93.3092651356939, 44.8907426450385], [-93.3099084947274, 44.8907473277795], [-93.3112082033315, 44.8907567766307], [-93.3124549831992, 44.8907658251754], [-93.3137190762974, 44.8907749882734], [-93.3150016414527, 44.8907842703794], [-93.3162063666903, 44.8907929758925], [-93.3162662340141, 44.8907934073815], [-93.3167219313915, 44.8907966976437], [-93.3175306585906, 44.8908025297445], [-93.3187848747122, 44.8908115649174], [-93.3187885083975, 44.8908115910104], [-93.3188028922218, 44.8908116941095], [-93.3188260148573, 44.8908118614864], [-93.3188279049126, 44.8908118748511], [-93.3188279556674, 44.8908118748511], [-93.3188279650997, 44.8908231813843], [-93.3188273973645, 44.8924878299914], [-93.3188273641268, 44.8925849451561], [-93.3188273605335, 44.8925943007917], [-93.3188272338711, 44.8929634204834], [-93.3188267478825, 44.8943890782522], [-93.3188267460859, 44.8943899316305], [-93.3188261307399, 44.8962028216129], [-93.3188261298416, 44.8962038085987], [-93.3188261289433, 44.8962077959959], [-93.3188260265353, 44.8965064586454], [-93.3188259977893, 44.8965917811826], [-93.3188259870095, 44.8966231901481], [-93.3188259393988, 44.8967617284394], [-93.3188257920751, 44.8971898206462], [-93.3188255171906, 44.8979975208169], [-93.3188255189872, 44.8980009850227], [-93.3188255270721, 44.898014176238], [-93.3188257507526, 44.8984155695359], [-93.3188261118753, 44.899063748203], [-93.3188265340835, 44.8998226682937], [-93.318826689492, 44.9001026109795], [-93.3188267883067, 44.9002815140962], [-93.3188268799349, 44.9004437969406], [-93.3188275366033, 44.9016230645223], [-93.3188280791858, 44.9025950242128], [-93.3188285552929, 44.9034504663985], [-93.3188285606828, 44.903458921211], [-93.3188288966527, 44.9040629280661], [-93.3188295515245, 44.9052371382684], [-93.3188295515245, 44.9052373253272], [-93.3188295506262, 44.9052374226742], [-93.3200880202707, 44.9052464135864], [-93.3208266213855, 44.9052516836816], [-93.3211546178553, 44.9052540225527], [-93.3214117255711, 44.9052558556014], [-93.3214280704177, 44.9052559707635], [-93.3214718659827, 44.9052562844369], [-93.3220588674101, 44.9052604665364], [-93.3220590057507, 44.9052604665364], [-93.3226337290049, 44.9052645576513], [-93.3232555635058, 44.9052689815268], [-93.3239000997814, 44.9052735625568], [-93.3239237690417, 44.9052737311642], [-93.3239287016909, 44.9052737661581], [-93.3239827272704, 44.9052741498193], [-93.3249614238062, 44.9052810989866], [-93.3251703144491, 44.9052825808222], [-93.3264437203818, 44.9052916073576], [-93.3275584514959, 44.9052994969058], [-93.3277079302609, 44.9053005556322], [-93.3282914129874, 44.9053046798295], [-93.3284791590851, 44.9053060070549], [-93.3289920036876, 44.9053096286112], [-93.3289948378723, 44.9053096489714], [-93.3289965617393, 44.9053096604239], [-93.3289965680275, 44.9053107057888], [-93.3289986826617, 44.9056277603262], [-93.3290085811978, 44.9071124507575], [-93.3290086243169, 44.9071190822218], [-93.3290206455721, 44.9089218177172], [-93.3290326812003, 44.910726709992], [-93.3290447087436, 44.9125301879941], [-93.3290482076816, 44.9129252734776], [-93.3290521926082, 44.9133751624757], [-93.3290529974987, 44.9134658762755], [-93.3290546656702, 44.9136541848035], [-93.3290579175715, 44.914021287549], [-93.3290606295854, 44.914327443164], [-93.3290606870775, 44.9143341202352], [-93.3290763186618, 44.9160987616452], [-93.3290765360541, 44.9161233094269], [-93.3290766186991, 44.9161326338789], [-93.3290876751636, 44.917380860144], [-93.32909134029, 44.9177946032658], [-93.3290924712689, 44.9179221589202], [-93.3290925251679, 44.9179281924624], [-93.3291052471089, 44.9193643177766], [-93.3291073356919, 44.9196000883482], [-93.3291083705512, 44.9197168149436], [-93.3291083651613, 44.9197188618949], [-93.3291083543815, 44.9197223476912], [-93.3291074147437, 44.9200330152569], [-93.3291028773532, 44.9215334765125], [-93.3291028584886, 44.9215399186711], [-93.3291014903544, 44.9219925834553], [-93.3291014571167, 44.9220035098486], [-93.3291013115896, 44.9220516348046], [-93.3290997431312, 44.9225702641983], [-93.3290997161817, 44.9225794489425], [-93.3290964157713, 44.9236714753002], [-93.3290963933135, 44.9236785329158], [-93.3290923302334, 44.9250217996768], [-93.329092186503, 44.9250692529956], [-93.3290921685367, 44.925075208191], [-93.3290921613502, 44.9250777854045], [-93.3290919340764, 44.9251530098394], [-93.3290918092106, 44.925194064552], [-93.3290866645589, 44.926895798807], [-93.3290864929807, 44.9269523901018], [-93.3290864920824, 44.9269525999865], [-93.3290819115728, 44.9276971400336], [-93.3290767525481, 44.9285358368024], [-93.3290754158549, 44.9287529414689], [-93.3290754140583, 44.9287532225784], [-93.329074185163, 44.9289530509753], [-93.3290656790156, 44.9303359753914], [-93.3290643252544, 44.9305559729784], [-93.329064198592, 44.9305667358876], [-93.3290457894169, 44.9321264120053], [-93.3290428887568, 44.932372111504], [-93.3290428887568, 44.9323721509331], [-93.329035962746, 44.9329590127717], [-93.3290256878158, 44.9338294251643], [-93.3290251748777, 44.933872893418], [-93.3290228168001, 44.9340726645747], [-93.3290227260703, 44.9340804242568], [-93.3290226012044, 44.9341211279121], [-93.3290215025649, 44.934480529774], [-93.3290169624794, 44.9359658744596], [-93.329016932835, 44.9359759772298], [-93.3290158988741, 44.9363137376279], [-93.3290158126358, 44.9363425303758], [-93.3290113390257, 44.9378050409151], [-93.3290087779289, 44.938643403133], [-93.3290080269373, 44.9388892311765], [-93.3290029891852, 44.9405367789868], [-93.3290028301834, 44.9405886864265], [-93.3290028229968, 44.9405912559494], [-93.3290025184679, 44.9406907786149], [-93.3290025067898, 44.9406945340158], [-93.3290021321924, 44.9408171706761], [-93.3290007550751, 44.9412673836611], [-93.3290003005275, 44.9414157088763], [-93.3290001801533, 44.9414212090131], [-93.3289995180949, 44.941451509988], [-93.3289816631803, 44.9422682644735], [-93.3289352526195, 44.9443909629932], [-93.3289223815581, 44.9449797207149], [-93.3289219997741, 44.9449972138769], [-93.3289212218331, 44.9450327546148], [-93.3289065182085, 44.9457051995653], [-93.3289046488144, 44.9457907313681], [-93.3288864148107, 44.9466246624688], [-93.3288792489497, 44.9469523986281], [-93.3288599702054, 44.9478340519029], [-93.3288598534244, 44.9478393657761], [-93.3288594860135, 44.9478562642458], [-93.3288489469786, 44.9483382528661], [-93.3288480486633, 44.9483793393246], [-93.3288478546272, 44.9483882109542], [-93.3288466742409, 44.948442179475], [-93.3288466652577, 44.9484425504503], [-93.3288466131554, 44.9484537804814], [-93.3288462771855, 44.9485255214043], [-93.3288408073438, 44.9496925309419], [-93.328835157839, 44.9508977557933], [-93.3288331258498, 44.9513312313224], [-93.3288297050652, 44.9520612526544], [-93.3288222068275, 44.9536616631692], [-93.3288215312944, 44.9538057002373], [-93.3288219535026, 44.9541283255819], [-93.3288224179316, 44.9544815095724], [-93.3288229659039, 44.9548998505153], [-93.328823544419, 44.9553410316477], [-93.3288239872884, 44.9556794187093], [-93.3288249323161, 44.956401059762], [-93.3288249161464, 44.9564042308915], [-93.328819809224, 44.9573904694105], [-93.3288165815772, 44.9580134848317], [-93.3288145900122, 44.9583979876968], [-93.3288097355164, 44.9593352375969], [-93.3288095666331, 44.9593676903434], [-93.3288076496283, 44.9597380949303], [-93.3288058898287, 44.9600777184579], [-93.3288049394111, 44.9602611074873], [-93.3287982343858, 44.9615557719228], [-93.3287981553341, 44.96157091392], [-93.3287975952345, 44.9616788820537], [-93.3287973693082, 44.9617225980936], [-93.3287972857649, 44.9617388625673], [-93.3287960649544, 44.9619749702376], [-93.3287953211494, 44.9620638516943], [-93.3287716747961, 44.9648966141934], [-93.3287703839171, 44.9650513416878], [-93.3287703336114, 44.96505736583], [-93.328770004828, 44.9650967318488], [-93.3287630051553, 44.9658058736098], [-93.3287629144255, 44.9658149923299], [-93.3287629108322, 44.9658154219844], [-93.3287598736282, 44.9661231580751], [-93.3287565597432, 44.9664588750513], [-93.3287565498617, 44.966460001293], [-93.3287565408785, 44.9664619309034], [-93.3287503218418, 44.967952527282], [-93.328749550189, 44.9681375092701], [-93.328749365136, 44.9681820866533], [-93.3287477203208, 44.9685764080372], [-93.3287424534983, 44.9698389725067], [-93.3287414195374, 44.9700867877399], [-93.3287411635175, 44.9701476987845], [-93.32874112489, 44.970157093908], [-93.3287411239916, 44.9701572133887], [-93.3287404906794, 44.9703090432763], [-93.3287345995277, 44.9717209712478], [-93.3287229034627, 44.9745241769817], [-93.3287165721366, 44.9760414620392], [-93.3287119835421, 44.9771410033675], [-93.3275743040657, 44.9771432961007], [-93.3275492473575, 44.9771433463019], [-93.3275284729182, 44.9771433882421], [-93.3261243890612, 44.9771462020509], [-93.3261221387814, 44.9771462058636], [-93.3255428260345, 44.977147361762], [-93.3255352370669, 44.977147377013], [-93.324737682215, 44.9771489631164], [-93.3237224619764, 44.9771509737059], [-93.3198859765869, 44.9771584924455], [-93.3192135193247, 44.9771597970408], [-93.3185354484904, 44.9771611086261], [-93.3185309703887, 44.977161116887], [-93.3185309461342, 44.9771643005314], [-93.3185309039134, 44.9771696256688], [-93.3185283410199, 44.977490917677], [-93.3185166853791, 44.9789528001613], [-93.3185105570722, 44.9797212068247], [-93.3185042949163, 44.9805065790977], [-93.3185025656594, 44.9807233588836], [-93.3185024749296, 44.980734866947], [-93.3185024569633, 44.980737104255], [-93.3185024030644, 44.9807437920328], [-93.3185023976745, 44.9807456665167], [-93.3185023976745, 44.9807457148084], [-93.3185023743183, 44.9807527889194], [-93.3184946640782, 44.9831485894472], [-93.3184944925, 44.9832021999549], [-93.3184922574915, 44.983896097403], [-93.3184919790138, 44.9839827343973], [-93.3184919547593, 44.9839903329347], [-93.3184919403862, 44.9839949566114], [-93.3184919385896, 44.9839957876914], [-93.3184919260132, 44.9839995942662], [-93.3184912855144, 44.9841985130238], [-93.3184906638802, 44.9843917813116], [-93.318489777243, 44.9846675867337], [-93.318481816373, 44.9871415271065], [-93.3184817741522, 44.9871636460854], [-93.3184812324681, 44.9874414890621], [-93.3184809270409, 44.9875986424663], [-93.3184802649825, 44.9879381874464], [-93.3184802586943, 44.9879419855001], [-93.3184766941792, 44.9897720018065], [-93.3184732194957, 44.9915557868486], [-93.3184731664951, 44.9915834439241], [-93.3184716690035, 44.9923519589213], [-93.3184696028784, 44.9934120276707], [-93.3184695849121, 44.9934204889359], [-93.3184657778519, 44.9952063203023], [-93.3184656664608, 44.9952583364719], [-93.3184656664608, 44.995258408256], [-93.3184618827568, 44.9970326718419], [-93.3184618504175, 44.9970481551241], [-93.318461826163, 44.9970595163466], [-93.318461826163, 44.9970595614485], [-93.3184599774301, 44.997926015572], [-93.3184599414975, 44.9979432435832], [-93.3184599405992, 44.9979436209084], [-93.3184585401257, 44.9986001401447], [-93.3184579948483, 44.9988556728405], [-93.3184579777803, 44.9988641072581], [-93.3184579229831, 44.9988901302043], [-93.3184577406251, 44.9989752930669], [-93.3184562952358, 44.9996535589245], [-93.3184541985679, 45.0006364469812], [-93.3184541707201, 45.000644901463], [-93.3184539874638, 45.0007011177004], [-93.3184531735902, 45.0009500019759], [-93.3184530208766, 45.0009968233988], [-93.3184514470282, 45.0014787575005], [-93.3184510912953, 45.0015874413145], [-93.3184505307466, 45.0017593011248], [-93.3184504570847, 45.0017821290456], [-93.3184498686882, 45.0019626045308], [-93.3184475438483, 45.0026739816514], [-93.318436658962, 45.0060053532184], [-93.3184365367911, 45.0060428651062], [-93.3184365349945, 45.0060468410689], [-93.3184364676208, 45.0065107476414], [-93.3184363544331, 45.0072909551463], [-93.3184360166665, 45.0096054926575], [-93.3184360130733, 45.0096381957664], [-93.3184360103783, 45.0096564218049], [-93.3184359331232, 45.0101838312348], [-93.3184358935974, 45.0104527355072], [-93.31843575885, 45.0113804144685], [-93.3184357489686, 45.0114472964671], [-93.3184357085444, 45.0117210423342], [-93.3184355198982, 45.0130295902666], [-93.3184355082201, 45.0131105527847], [-93.3184355064235, 45.0131245234561], [-93.3184355032793, 45.0131337216544], [-93.3184355028302, 45.0131407536646], [-93.3184355010336, 45.0131603757182], [-93.3184355001353, 45.0131606202158], [-93.3184354749824, 45.0133331349785], [-93.3184354758807, 45.0133342114001], [-93.3184354731858, 45.0133376184807], [-93.3184354731858, 45.0133405232312], [-93.3184354651009, 45.0134010758758], [-93.3184354435414, 45.0135461276182], [-93.3184354426431, 45.01354760158], [-93.3184354444397, 45.0135490761768], [-93.31843542827, 45.0136529125903], [-93.3184354129987, 45.0137642799002], [-93.3184353779644, 45.0139978071748], [-93.3184353788627, 45.0140018314841], [-93.3184352198609, 45.0150719384527], [-93.3184352081828, 45.0151511288708], [-93.3184349575528, 45.0168568936892], [-93.3184346925498, 45.0186770642473], [-93.3184346925498, 45.0186770966322], [-93.3184346772784, 45.0187858576707], [-93.3184344311401, 45.0204717219609], [-93.3184812082135, 45.0222802328092], [-93.3184814381822, 45.0222891615847], [-93.3184817597791, 45.0223015572271], [-93.3185272953809, 45.0240621416829], [-93.3185282610698, 45.0240995172967], [-93.3185285116998, 45.0241091435848], [-93.3185354628634, 45.0243779246916], [-93.3185603030777, 45.0253382817463], [-93.3185749617865, 45.0259049834038], [-93.3186217864707, 45.0277151447764], [-93.3186223595958, 45.0277406638406], [-93.3186397797258, 45.0285173010283], [-93.3186620238089, 45.0295089376338], [-93.3186625448317, 45.0295321989093], [-93.3186625565098, 45.0295327099855], [-93.3186625601031, 45.0295328661654], [-93.3187015460881, 45.0312707736196], [-93.3187028181026, 45.0313274553057], [-93.3187345600731, 45.0327423280533], [-93.3187433312235, 45.0331332451149], [-93.318749181951, 45.0333939976321], [-93.3187494514456, 45.0334059528341], [-93.3187494541405, 45.0334060696436], [-93.3187515409269, 45.0334992143708], [-93.3187579414233, 45.0337844652264], [-93.3187623952705, 45.0339829565967], [-93.3187655429673, 45.0341231988106], [-93.3187920585395, 45.0353049858057], [-93.3187953517633, 45.0354517487397], [-93.3187954559679, 45.0354564171446], [-93.3187954963921, 45.0354582282621], [-93.3188109905341, 45.0354582720641], [-93.3188262115883, 45.0354583152313], [-93.3192041445064, 45.0354593848889], [-93.3192042289481, 45.0354648582341], [-93.3192184429908, 45.0364029578827], [-93.3192198219048, 45.036448932066], [-93.3192206393717, 45.0364761777018], [-93.319225880143, 45.0366508611497], [-93.3192333352616, 45.0368994000427], [-93.3192352190287, 45.0369622168432], [-93.3192367281984, 45.0370125325707], [-93.3192421127002, 45.0371920153162], [-93.3192557500246, 45.0376465832478], [-93.3193201682136, 45.0397937809173], [-93.3193242645313, 45.0399302993416], [-93.3193315965806, 45.0401747272541], [-93.3193318831432, 45.0401842879975], [-93.3193318876348, 45.0401843959066], [-93.3193318975162, 45.0401847399461], [-93.3193319199741, 45.0401854699191], [-93.3193321337732, 45.0401926103245], [-93.3197177454903, 45.0402013731729], [-93.3231758721603, 45.0402798940748], [-93.323184498682, 45.0402800895803], [-93.3232120015027, 45.0417933989165], [-93.3232315506399, 45.0428690722262], [-93.3232315982506, 45.0428717234908], [-93.323231681794, 45.0428761761171], [-93.3231849226868, 45.0428657341843], [-93.3217866572178, 45.0425534699405], [-93.3204301876641, 45.0422505206517], [-93.3201865313214, 45.0421961008788], [-93.3198225609177, 45.0421148068985], [-93.3193941085446, 45.0420191105808], [-93.3193887662636, 45.0420179179066], [-93.3193815357239, 45.042016303131], [-93.3193814512823, 45.0420162840888], [-93.3193815869279, 45.0420210738279], [-93.3193816893358, 45.0420246543894], [-93.3193855565831, 45.0421609485063], [-93.3193860497582, 45.0421783244357], [-93.3193892172179, 45.0422898673036], [-93.3194256699538, 45.0435740662556], [-93.3194367201301, 45.0439633580739], [-93.3194367866055, 45.0439657135096], [-93.3194367919953, 45.0439663825015], [-93.3194531260622, 45.0457696643851], [-93.3194533623191, 45.0457957517037], [-93.3194697233353, 45.0476018859144], [-93.3194697350134, 45.0476031171876], [-93.3194859918251, 45.0493977939902], [-93.3194862334719, 45.0494244857512], [-93.3194863610327, 45.0494385338745], [-93.3194892122854, 45.049753193796], [-93.3194953387957, 45.0504293713235], [-93.3195027355237, 45.0512457506237], [-93.319502739117, 45.0512462602368], [-93.3195009586561, 45.0512462570636], [-93.3194933382475, 45.0512462481787], [-93.3194918650105, 45.0512462469094], [-93.3182280997974, 45.0512447136277], [-93.3182278958798, 45.0512447136277], [-93.3173876548822, 45.0512436855167], [-93.3171079527404, 45.0512433421783], [-93.3169598555843, 45.0512431606723], [-93.3169597531764, 45.0512431600377], [-93.3163416394974, 45.0512423984739], [-93.3157289956602, 45.0512416407179], [-93.3156765151829, 45.051241575985], [-93.3156763534862, 45.051241575985], [-93.3144626019766, 45.0512400617424], [-93.3141941359623, 45.051239725385], [-93.3141858939196, 45.0512397145962], [-93.3139281996039, 45.0512393915662], [-93.3128873378539, 45.0512380797725], [-93.3124208265572, 45.0512374882913], [-93.3105935849973, 45.0512351540981], [-93.3104532259291, 45.0512349738612], [-93.3098245696219, 45.0512341634303], [-93.3093872616568, 45.0512335979692], [-93.3087763839074, 45.0512278316609], [-93.3080975432168, 45.0512214205612], [-93.308073875304, 45.0512211965344], [-93.3075141898478, 45.0512159068372], [-93.3068422841512, 45.0512095541227], [-93.3068123226415, 45.05120927044], [-93.3055658958118, 45.0511974738091], [-93.3055656299104, 45.0511974725398], [-93.3055387109946, 45.0511972174158], [-93.3049744046045, 45.0511918718682], [-93.3046672247948, 45.051188960788], [-93.3046443608742, 45.0511887443768], [-93.3042806267274, 45.0511852970281], [-93.3042692244115, 45.0511851885051], [-93.3042583278472, 45.0511850850593], [-93.3042581490824, 45.0511850831554], [-93.3039155536418, 45.0511818344479], [-93.3030058490673, 45.0511732027473], [-93.3029872233982, 45.0511730269528], [-93.3023257597185, 45.0511667459476], [-93.301721907693, 45.0511610100952], [-93.3017111638422, 45.0511609072839], [-93.3004527031809, 45.0511489399255], [-93.3004526483836, 45.0511489392909], [-93.3004510925016, 45.0511489246942], [-93.2993567288898, 45.0511385077531], [-93.2991944024197, 45.0511369611411], [-93.2991871628968, 45.0511368932349], [-93.299187106303, 45.0511368932349], [-93.2991844904088, 45.0511368678494], [-93.299179789525, 45.0511368234248], [-93.2991786369865, 45.0511368221555], [-93.2978980669894, 45.0511358467174], [-93.2978979061909, 45.0511358467174], [-93.296978430192, 45.0511351384618], [-93.2966297284532, 45.0511348674715], [-93.2966075185061, 45.0511348503363], [-93.2953534227588, 45.0511338672825], [-93.2953319386504, 45.0511338501473], [-93.2942109471771, 45.0511329591159], [-93.2940819823399, 45.0511328569393], [-93.2940767783995, 45.0511328524968], [-93.2940561135547, 45.0511328359962], [-93.2930470054533, 45.0511320230253], [-93.2928072819349, 45.0511318294609], [-93.2928072415107, 45.0511318294609], [-93.2927604680305, 45.0511317920172], [-93.2926300757704, 45.0511316860327], [-93.2915236441911, 45.051130781674], [-93.2914924142603, 45.0511307556538], [-93.291492330717, 45.0511307556538], [-93.290254274389, 45.0511297300793], [-93.2902047089449, 45.0511296881932], [-93.2899039601743, 45.0511294375113], [-93.288971180126, 45.051128653099], [-93.2889587016284, 45.0511286423102], [-93.2889585839491, 45.0511286416756], [-93.2883374375577, 45.0511281161955], [-93.2882801385173, 45.0511280660591], [-93.2876803235206, 45.0511275545411], [-93.2876802336891, 45.0511275545411], [-93.2876744790814, 45.051127549464], [-93.2870293710281, 45.0511269960599], [-93.286401752275, 45.0511264521753], [-93.2864016669351, 45.0511264521753], [-93.286087605132, 45.0511261792811], [-93.2858599459878, 45.0511259819087], [-93.2858562988278, 45.0511259787355], [-93.2857592915569, 45.0511258930594], [-93.2855426286901, 45.0511257039374], [-93.2851965221842, 45.0511254005805], [-93.2851236831877, 45.0511253364821], [-93.2850997727298, 45.0511253161737], [-93.2848488786608, 45.0511250940505], [-93.2844518134238, 45.0511247437304], [-93.2840883496699, 45.0511244219691], [-93.2835376302985, 45.0511239326633], [-93.2835276068965, 45.0511239237784], [-93.283363256522, 45.0511237759078], [-93.2830112714409, 45.0511234611275], [-93.2829925631268, 45.0511236813468], [-93.282990808717, 45.0511237022898], [-93.2829221154456, 45.0511245093375], [-93.2826787052413, 45.0511273685922], [-93.2817660878795, 45.051138078738], [-93.2815017909465, 45.0511411789428], [-93.2814957731324, 45.0511230568631], [-93.2814949062581, 45.0511181117652], [-93.2814933009687, 45.0511089609211], [-93.2813502218018, 45.0502931064254], [-93.2813258325419, 45.0501540424026], [-93.281215770055, 45.0493966808019], [-93.2811975117968, 45.049271040164], [-93.2811859738353, 45.049172286604], [-93.2810941552335, 45.048386395735], [-93.2810651360565, 45.0480593375981], [-93.281010483453, 45.0474433821266], [-93.2809756387014, 45.0470506467169], [-93.2809408577303, 45.0467804386804], [-93.2809233908879, 45.0466447534445], [-93.2808560630557, 45.046239976254], [-93.2808474437205, 45.0461985264095], [-93.2807661434923, 45.0458075513528], [-93.2807661354075, 45.0458075183486], [-93.2807083620566, 45.045529673444], [-93.280689677997, 45.0454130656307], [-93.2806707630704, 45.0452950091888], [-93.2806508074455, 45.0451113504348], [-93.2806409138501, 45.0450202953361], [-93.2806273771371, 45.0447843157803], [-93.2806273358146, 45.0447802910958], [-93.2806250478056, 45.0445549324342], [-93.2806249795336, 45.0445481518196], [-93.2806322612773, 45.0443703849279], [-93.280636260577, 45.0442727374646], [-93.2806579863321, 45.0440370696444], [-93.2806693491221, 45.0439579674201], [-93.2806715607744, 45.0439425761581], [-93.2806973612877, 45.0437629584468], [-93.2807049996625, 45.0436407069034], [-93.2807236217384, 45.0433426158381], [-93.2807354004484, 45.0432362105855], [-93.2807694331229, 45.0429287608772], [-93.2807757518726, 45.0428889830489], [-93.2807903095209, 45.0427973299881], [-93.2808349580364, 45.0425162422098], [-93.2809011450082, 45.0422016840239], [-93.2809245712742, 45.0420903498128], [-93.2809263625148, 45.0420818335321], [-93.2809265304998, 45.0420810375705], [-93.2809321485636, 45.0420543392091], [-93.2809859271064, 45.0418518649097], [-93.2810063377279, 45.0417750193438], [-93.2810267519428, 45.0416981641536], [-93.2810540508459, 45.0415953872103], [-93.2810913857275, 45.0414781582141], [-93.2811823114039, 45.0411926556298], [-93.2811830111915, 45.0411904568627], [-93.2812534525845, 45.0409995744879], [-93.281331220637, 45.0407888408657], [-93.2813974273717, 45.0406313845871], [-93.2814984950277, 45.0403910153568], [-93.2815864293142, 45.0402005594119], [-93.2817770608007, 45.0397876713182], [-93.281890802787, 45.0395413152365], [-93.2820485694088, 45.0391995972966], [-93.2820686180093, 45.0391561739273], [-93.2822708584242, 45.038718122152], [-93.2824933845948, 45.0382361256095], [-93.2826960912353, 45.037797049229], [-93.28283056544, 45.0375423244128], [-93.2829480893337, 45.0372966353509], [-93.2830717981281, 45.0370069501888], [-93.2831572350981, 45.0367801599101], [-93.2831662227426, 45.0367563023319], [-93.2832242925375, 45.0365780636957], [-93.2832678087265, 45.0364444929051], [-93.2833589715581, 45.0361046424744], [-93.2834306068122, 45.0357624501223], [-93.283472287743, 45.035493151777], [-93.2834758594446, 45.0354700770195], [-93.2834760705487, 45.0354687058267], [-93.2834771772731, 45.0354615648318], [-93.2834773174103, 45.0354601891951], [-93.2834771727815, 45.0354615648318], [-93.2834770272545, 45.0354615654667], [-93.2834762079909, 45.0354615705451], [-93.2834743412918, 45.0354615794325], [-93.2834718799079, 45.0354615914939], [-93.2834684249873, 45.0354616086338], [-93.2833122843162, 45.0354623767558], [-93.2828432155159, 45.0354646874698], [-93.2826389017893, 45.0354656917417], [-93.2820464808258, 45.0354686042568], [-93.2820462796031, 45.0354686048916], [-93.2820325740068, 45.0354686728165], [-93.2820304719491, 45.0354686823386], [-93.2820303084557, 45.0354686836083], [-93.2819608893455, 45.035469024502], [-93.2782137611739, 45.035487373725], [-93.2779608674551, 45.0354886077981], [-93.277817582574, 45.0354893060905], [-93.2767211393624, 45.0354946486618], [-93.275877836008, 45.0354987501768], [-93.2758396809646, 45.0354989355417], [-93.2758275626914, 45.0354989945791], [-93.2754134914477, 45.0355010069304], [-93.2744591733922, 45.0355056366078], [-93.2735879674667, 45.0355098561969], [-93.2734775977559, 45.0355103907078], [-93.273459043952, 45.0355104802161], [-93.2732775788748, 45.0355113594294], [-93.2732744491443, 45.0355113746648], [-93.2727278341754, 45.0355140167482], [-93.2706988840033, 45.0355238029935], [-93.2678631964005, 45.03553742032], [-93.2676798421661, 45.0355382982632], [-93.2676776403954, 45.0355383084202], [-93.267675850053, 45.0355383173075], [-93.2676754377263, 45.0355383204816], [-93.2676716773785, 45.0355383236557], [-93.2676573025373, 45.0355383363518], [-93.2675504084084, 45.0355384341127], [-93.2663963894753, 45.0355394815503], [-93.2663906743935, 45.0355394866288], [-93.2663905513243, 45.0355394872636], [-93.2662685726851, 45.0355395977207], [-93.265776414487, 45.0355400401838], [-93.2650956514018, 45.035540649602], [-93.2650955139596, 45.0355406489672], [-93.2650797548145, 45.0355406642027], [-93.2643916722563, 45.0355412748905], [-93.2638148289781, 45.0355417833739], [-93.2638087177392, 45.0355417890872], [-93.2638086180262, 45.0355417890872], [-93.2635177022147, 45.0355420455507], [-93.2630147848945, 45.0355424861093], [-93.262821768381, 45.0355426536994], [-93.262806619192, 45.0355426676652], [-93.2627304357677, 45.0355427330507], [-93.2627162738273, 45.0355427457469], [-93.2626581986425, 45.0355427965318], [-93.2625284055586, 45.0355429088933], [-93.2617713099288, 45.0355435640178], [-93.2615074450854, 45.0355437925497], [-93.260980793377, 45.0355442445349], [-93.2609803379312, 45.0355442445349], [-93.2608741579629, 45.0355443353128], [-93.25993571763, 45.035545132635], [-93.259915713047, 45.03554514914], [-93.2599156384868, 45.03554514914], [-93.2588962069462, 45.0355460086736], [-93.2587458657985, 45.0355461337313], [-93.2554799363785, 45.0355488177106], [-93.255472931316, 45.0355488240587], [-93.255472894485, 45.0355488240587], [-93.2546145650108, 45.0355495128282], [-93.2513740677949, 45.0355520596882], [-93.2511173149136, 45.0355522564795], [-93.2511170472157, 45.0355522571143], [-93.250868661243, 45.0355524475575], [-93.2505103250728, 45.0355527211608], [-93.2498512311488, 45.0355532239308], [-93.24985117186, 45.0355532239308], [-93.2485553251132, 45.0355541996346], [-93.2485552900789, 45.0355541996346], [-93.2481298075362, 45.035554516405], [-93.2479457032086, 45.0355546528893], [-93.247770591017, 45.0355547817558], [-93.2472864484862, 45.0355551404238], [-93.2472729245741, 45.035555149946], [-93.2472728363147, 45.0355551505807], [-93.2472577023971, 45.0355552381846], [-93.2467718710335, 45.0355580548389], [-93.2466373887439, 45.0355588343861], [-93.2464545348712, 45.0355598938848], [-93.2460171343796, 45.0355624267786], [-93.246017081379, 45.0355624267786], [-93.2447272964637, 45.0355698864356], [-93.2447270557152, 45.0355698877053], [-93.2441110198395, 45.0355734458172], [-93.2438483488572, 45.0355749617443], [-93.2437047810068, 45.0355757901717], [-93.2429705169581, 45.0355800230866], [-93.2429704855171, 45.0355800237214], [-93.2421862014768, 45.0355845403962], [-93.2421861062554, 45.035584541031], [-93.2420343287016, 45.0355854145299], [-93.2413354052746, 45.0355894347827], [-93.2413353567656, 45.0355894347827], [-93.240518254573, 45.0355941285687], [-93.2405181494701, 45.0355941292035], [-93.2396347318467, 45.0355991975271], [-93.2396346779478, 45.0355991981619], [-93.2383598086595, 45.0356064997465], [-93.2383597269128, 45.0356065003813], [-93.2371036081595, 45.0356136794467], [-93.2371035102431, 45.0356136813511], [-93.2346149029199, 45.0356278674457], [-93.2346147798507, 45.0356278674457], [-93.2311886358998, 45.0356473091249], [-93.2308017243204, 45.035649497948], [-93.2306864273503, 45.0356501498974], [-93.2306863042811, 45.035650151167], [-93.2306860356849, 45.0356501530714], [-93.2294835544388, 45.0356569461672], [-93.2294716544562, 45.0356570121874], [-93.2294713966397, 45.0356570140918], [-93.2283909119992, 45.0356631082617], [-93.2282228201415, 45.0356640547624], [-93.2269362502966, 45.0356712960319], [-93.2269350618255, 45.0356713036496], [-93.2269343323935, 45.0356713068236], [-93.2269293179976, 45.03567133539], [-93.2269272743303, 45.0356713461818], [-93.2269267110867, 45.0354269796525], [-93.2269252153917, 45.0347717020577], [-93.2269240745313, 45.0342717975146], [-93.2269239730217, 45.0342273299271], [-93.2269231887924, 45.0338843594755], [-93.2269222832906, 45.0334875689869], [-93.2269213490427, 45.0330784757622], [-93.226921349941, 45.0330783373675], [-93.2269188391498, 45.0319789772039], [-93.2269173928622, 45.0313449430857], [-93.2269147527136, 45.0309180285742], [-93.2269112861149, 45.0303572370152], [-93.2269062681257, 45.0295458087732], [-93.2269062070403, 45.0295357732686], [-93.2269059923429, 45.0295010302327], [-93.2269041112707, 45.0291968239727], [-93.2269022310968, 45.0288926516494], [-93.2268963776744, 45.0279459631994], [-93.2268950876937, 45.0277373369791], [-93.2268950176251, 45.0277258675592], [-93.2268945037888, 45.0276426794354], [-93.2268944966022, 45.0276413601167], [-93.2268942064464, 45.027594756657], [-93.2268891219819, 45.0267722837588], [-93.2268839234313, 45.0259310226372], [-93.2268838335998, 45.0259165931878], [-93.2268808242436, 45.0252412189494], [-93.2268758520685, 45.0241247998712], [-93.2268757352875, 45.0240986296539], [-93.2268731661058, 45.0225125964046], [-93.2268727968982, 45.0222848267285], [-93.226871944397, 45.0217587148515], [-93.2268718419891, 45.0216960235952], [-93.2268718258194, 45.0216855193806], [-93.2268714188826, 45.0214340348403], [-93.226869872882, 45.0204815584016], [-93.2268698576106, 45.0204716298891], [-93.2268698576106, 45.0204709549077], [-93.2268698037117, 45.0204379055715], [-93.2268680789464, 45.0193737344375], [-93.22686798103, 45.01931340972], [-93.2268673773621, 45.0189402892528], [-93.2268673620908, 45.0189304436573], [-93.226867348616, 45.0189223912861], [-93.2268673477177, 45.0189222490473], [-93.2268652779993, 45.0182082600114], [-93.2268626378507, 45.0172970921338], [-93.2268614520745, 45.0168890084414], [-93.2268614529728, 45.0168889182689], [-93.2268613577514, 45.0168561615135], [-93.2268613370902, 45.0168488511867], [-93.226859139811, 45.0160910944242], [-93.226859057166, 45.0160623359759], [-93.2268588936726, 45.0160058909621], [-93.2268560558946, 45.0150272819483], [-93.2268560558946, 45.0150272432109], [-93.2268560558946, 45.0150271670063], [-93.2268558573669, 45.0149587974818], [-93.2268551027821, 45.0146982022979], [-93.2268508833952, 45.0132423065148], [-93.2268508250047, 45.0132223237762], [-93.2268508061401, 45.0132165472863], [-93.2268508016485, 45.0132152695491], [-93.2268429351016, 45.013215323529], [-93.2268307898789, 45.0132154073567], [-93.2267268709702, 45.0132161192571], [-93.226726747901, 45.0132161205271], [-93.2267249404907, 45.0132161325933], [-93.2267129102524, 45.0132162151509], [-93.226712430552, 45.0132162183261], [-93.2267068493192, 45.0132162557946], [-93.2266301987709, 45.0132167822579], [-93.2266094656542, 45.0132169238759], [-93.2265286846522, 45.0132174782818], [-93.2261488149664, 45.0132200832908], [-93.2254718957722, 45.013224721756], [-93.2253976167763, 45.0132252304376], [-93.2253727846469, 45.0132254012683], [-93.2253544976427, 45.0132255263748], [-93.2252939682605, 45.0132259404327], [-93.2252151905017, 45.0132264795971], [-93.2248787579531, 45.0132287829531], [-93.2241935491055, 45.0132334703171], [-93.2241486387312, 45.0132337776852], [-93.2229960085935, 45.0132416530401], [-93.2229870613732, 45.0132417140057], [-93.2227091010648, 45.013243611559], [-93.2216606988562, 45.0132507623115], [-93.2216588537166, 45.0132507750127], [-93.2204254830012, 45.013259174923], [-93.2204254488652, 45.013259174923], [-93.2204117792016, 45.0132592676414], [-93.2196582274255, 45.0132643938279], [-93.2195541522099, 45.0132651012822], [-93.2194303032783, 45.0132659427337], [-93.21837218579, 45.0132731290467], [-93.2182840323145, 45.013273716475], [-93.2182246734372, 45.0132741121159], [-93.2178974656882, 45.0132762909987], [-93.2178907516798, 45.0132763354527], [-93.2178891418988, 45.0132763468838], [-93.2178865834969, 45.0132763633953], [-93.2178814092008, 45.0132763989585], [-93.2178794023645, 45.0132764122947], [-93.2178717675829, 45.0125072634388], [-93.2178567720059, 45.0109962509302], [-93.2178434832279, 45.0096571661395], [-93.2178421052122, 45.0095182669163], [-93.2178288397904, 45.0081814676425], [-93.2178288361972, 45.0081811367481], [-93.2178245242838, 45.0077466897304], [-93.2178216370985, 45.0074557124245], [-93.2178080105539, 45.0060825593015], [-93.217807426649, 45.0060234578313], [-93.2178074104793, 45.0060218934863], [-93.2178043669871, 45.0060219271486], [-93.2176737483516, 45.0060233352497], [-93.2161654132091, 45.0060395960517], [-93.214583654267, 45.0060566260008], [-93.2136806893029, 45.0060663378902], [-93.2136586689004, 45.0060665747966], [-93.2134324749084, 45.0060690067383], [-93.2123264691307, 45.0060808901604], [-93.2088340034606, 45.0061183454715], [-93.2087805932271, 45.0061189170948], [-93.2078677665579, 45.0061286886765], [-93.2078449080272, 45.0061289332043], [-93.2078322795109, 45.0061290684884], [-93.2078118572112, 45.0061292869755], [-93.2076610606177, 45.0061309002231], [-93.2076448828578, 45.0061310736155], [-93.2076344615022, 45.0061311847644], [-93.2076344444342, 45.0061296750442], [-93.2076344345527, 45.0061287896633], [-93.2076341336171, 45.0061028150996], [-93.2076341021761, 45.0061001443478], [-93.2076291084414, 45.0056697521718], [-93.2076281508373, 45.0055871271287], [-93.2076277277308, 45.0055506133877], [-93.2076272471321, 45.0055093144507], [-93.2076236592609, 45.0047984355628], [-93.207618724815, 45.0038208539162], [-93.2076071706838, 45.0015313002637], [-93.2076027536676, 45.0006560752242], [-93.2076024715966, 45.0006001682841], [-93.2076024275791, 45.0005916007305], [-93.2075985513487, 44.9998231549418], [-93.2075964088667, 44.999398672621], [-93.2075950110881, 44.9991219801776], [-93.2075941289426, 44.998947030386], [-93.2075839689967, 44.9969338452828], [-93.2075742357506, 44.9950050422721], [-93.2075668264461, 44.9935364123999], [-93.2075585134365, 44.9918885545692], [-93.207557625901, 44.9917125439826], [-93.207557623206, 44.991711994451], [-93.2075575657139, 44.9917007147569], [-93.2075569503679, 44.991578804977], [-93.2075574929503, 44.9911739972628], [-93.2075576223077, 44.9910776573438], [-93.2075590497307, 44.9900140391095], [-93.2075592455634, 44.9898675027604], [-93.2075615793865, 44.9881287245217], [-93.2075616530484, 44.9880738682779], [-93.207561654845, 44.9880737551879], [-93.2075616737096, 44.9880727678741], [-93.2075949086802, 44.9862926344739], [-93.2076161143108, 44.9851568327632], [-93.2076208107031, 44.9849052322961], [-93.207621696442, 44.9847461259928], [-93.2076233161044, 44.9844554855297], [-93.2076259032525, 44.9839907630885], [-93.2076297651099, 44.9832969068158], [-93.2076306409673, 44.983139601832], [-93.2076454074739, 44.9804873652372], [-93.2076459922772, 44.9803821228826], [-93.2076459931755, 44.9803820739551], [-93.2076461746352, 44.9803493744796], [-93.2076482551334, 44.9799755337842], [-93.2076648640846, 44.9773500217114], [-93.2076654857188, 44.9772497187247], [-93.2076655315329, 44.9772423734768], [-93.2076712789541, 44.9763163061361], [-93.2076715727032, 44.9762689123267], [-93.2076721215738, 44.9761805275748], [-93.2076748847916, 44.9757350996759], [-93.2076785238669, 44.9751485511972], [-93.2076796135233, 44.9749730211068], [-93.2076799234421, 44.9749231636915], [-93.2076799638663, 44.9749167370537], [-93.2076799953073, 44.9749115858295], [-93.2076802288693, 44.9748738946904], [-93.2076809385383, 44.974759506942], [-93.2076809511148, 44.9747574772042], [-93.2076838904024, 44.9742837818372], [-93.20768682969, 44.9738100831929], [-93.2076872006942, 44.9737503212012], [-93.2076940162123, 44.9726518791086], [-93.2076943440973, 44.9725990976071], [-93.2077017776563, 44.9714011413407], [-93.2077033847423, 44.9711421344782], [-93.2077130982255, 44.9695765717862], [-93.2077131413446, 44.96956963548], [-93.2077227874542, 44.9680148890329], [-93.2077227946407, 44.9680137285016], [-93.2077228449464, 44.9680055253366], [-93.2077236660065, 44.9678732925949], [-93.2077307950366, 44.9667240719405], [-93.207732400326, 44.9664653426781], [-93.2077327129397, 44.9664149007627], [-93.2077327138381, 44.9664147997059], [-93.2077439248128, 44.9646074481218], [-93.2077439275077, 44.9646070591364], [-93.207753008577, 44.9631433862176], [-93.2077550738038, 44.9628103098952], [-93.2077550917701, 44.9628074070323], [-93.207752324959, 44.9619728294484], [-93.2077504151407, 44.9613965569685], [-93.2077466296401, 44.96025437219], [-93.2077451581997, 44.9598105355832], [-93.2077449039765, 44.9597334699332], [-93.2077425944079, 44.9590359886433], [-93.2077425872213, 44.9590340098373], [-93.2077416664482, 44.9587563737286], [-93.2077415442773, 44.9587190584555], [-93.2077415182262, 44.9587112823978], [-93.2077406109277, 44.9584375566127], [-93.2077406037412, 44.9584354856147], [-93.2077405570288, 44.9584211475427], [-93.2077349299819, 44.9567232525532], [-93.2077327874999, 44.9560767616584], [-93.2077317373693, 44.9557597083288], [-93.2077299703832, 44.9552258065036], [-93.2077298922298, 44.955202745173], [-93.207728434264, 44.9547621255774], [-93.2077282932286, 44.9547195720273], [-93.2077282923302, 44.9547192179386], [-93.207726348376, 44.9541323401105], [-93.2077263384945, 44.9541295506012], [-93.2077262244085, 44.9540951063802], [-93.2077262001539, 44.9540874708243], [-93.2077261013393, 44.9540576647473], [-93.2077260959494, 44.9540562744408], [-93.207725134752, 44.9537663353711], [-93.2077238160252, 44.953368652842], [-93.2077231961876, 44.9531813727694], [-93.2077230066431, 44.953124339428], [-93.2077227910474, 44.9530590772057], [-93.2077227084024, 44.9530343055392], [-93.2077226967243, 44.9530309400094], [-93.207722681453, 44.9530250140953], [-93.2072808801148, 44.9528761235171], [-93.2071994190882, 44.9528486709094], [-93.2067360846835, 44.9526704342975], [-93.2066901551704, 44.9526527661053], [-93.206196326106, 44.9524378579733], [-93.2060457765492, 44.9523646406833], [-93.2060457370233, 44.9523646209756], [-93.2057662459856, 44.9522286922599], [-93.2056328057417, 44.9521568803131], [-93.2056175595347, 44.9521486736092], [-93.2056174903644, 44.9521486373723], [-93.2053507949296, 44.9520051098205], [-93.2052691847827, 44.9519563767675], [-93.2052691416635, 44.9519563507023], [-93.2050141836162, 44.9518040996966], [-93.2049482275114, 44.9517647131138], [-93.2049161801137, 44.9517455760843], [-93.2049075185577, 44.9517404030712], [-93.2048305338362, 44.9516892126577], [-93.2048305086834, 44.9516891961284], [-93.2047851239986, 44.9516590181691], [-93.2044847534187, 44.9514592865832], [-93.2044593454692, 44.9514404895744], [-93.2044141117014, 44.9514070227842], [-93.2040836996618, 44.9511625630625], [-93.2040467393777, 44.9511322869213], [-93.2040466881738, 44.951132244962], [-93.2037422599038, 44.9508828601931], [-93.2037400563364, 44.9508808594906], [-93.2036008596882, 44.9507544158384], [-93.2036008075859, 44.9507543707002], [-93.2033855577691, 44.9505588414704], [-93.203293749947, 44.950465594272], [-93.2030536994419, 44.9502217771048], [-93.2027705262098, 44.9498987508858], [-93.2027476236616, 44.9498726249573], [-93.2027462177982, 44.9498708130403], [-93.2024682017942, 44.9495123772354], [-93.2022162315435, 44.9491420649467], [-93.2021941832932, 44.949104695739], [-93.202139112973, 44.949011355263], [-93.2019924288669, 44.9487627362856], [-93.2019738687748, 44.9487259097809], [-93.2017994932017, 44.9483799299613], [-93.2017881402932, 44.9483522069049], [-93.2017652224737, 44.9482962381427], [-93.2016870411962, 44.9481053067643], [-93.2016363079422, 44.9479709027373], [-93.2016362782978, 44.9479708188141], [-93.2015619184535, 44.947773813349], [-93.20153882681, 44.9477064768362], [-93.2014524802957, 44.9474546739071], [-93.2014475727993, 44.9474403629734], [-93.201433069499, 44.9473938214198], [-93.2013605628792, 44.9471611188077], [-93.2012811131805, 44.9468807422069], [-93.2011957876016, 44.9465429403339], [-93.2011805108519, 44.9464741368629], [-93.2011804955805, 44.9464740586597], [-93.2011330654318, 44.9462604307826], [-93.2011213325359, 44.9461992158943], [-93.201114870954, 44.9461655038076], [-93.2011148422079, 44.9461653563017], [-93.2010678827765, 44.9459203726053], [-93.2010586121627, 44.9458619739694], [-93.2010585798234, 44.9458617692403], [-93.2010137449075, 44.9455793370842], [-93.2010093638239, 44.9455453041862], [-93.2009770774743, 44.945294526877], [-93.2009481157895, 44.9450092708226], [-93.2009475121217, 44.9450008583645], [-93.2009425650994, 44.9449318686588], [-93.2009249895608, 44.9446868288329], [-93.2009235333918, 44.9446665201743], [-93.2009225308719, 44.9446426382101], [-93.2009193436493, 44.9445666801329], [-93.2009134560909, 44.944426317811], [-93.2009115399844, 44.9443806506109], [-93.2009112156926, 44.9443541489435], [-93.2009076969916, 44.9440667620188], [-93.2009073385638, 44.9440374657559], [-93.2009074661246, 44.9440311106851], [-93.2009087866481, 44.9439656677218], [-93.2009087875464, 44.9439656289365], [-93.2009134138701, 44.9437364647997], [-93.2009142645747, 44.9436943068257], [-93.200919773044, 44.9435875396343], [-93.200922146393, 44.9435415513084], [-93.2009221508846, 44.9435414750088], [-93.2009280043069, 44.9434280160407], [-93.2009308591529, 44.9433726770379], [-93.2009405169405, 44.9432336546777], [-93.2009631023834, 44.9429085220241], [-93.2009853770092, 44.9425878425493], [-93.2009940942607, 44.942462354421], [-93.2010069419659, 44.942219142918], [-93.2010270453636, 44.9418385781977], [-93.2010359171254, 44.9416706183586], [-93.2010410779467, 44.9415728885874], [-93.2010422053324, 44.9415515620991], [-93.2010618739455, 44.9410081580887], [-93.2010688313974, 44.9408159593616], [-93.2010746237344, 44.9406559746969], [-93.2010751851814, 44.9406404310384], [-93.2010773141886, 44.9405317232342], [-93.2010871606224, 44.9400287317999], [-93.2010912210075, 44.9398213572628], [-93.2010930275196, 44.9397290858544], [-93.2010933958288, 44.9396050466753], [-93.2010937659348, 44.9394798289512], [-93.2010946247242, 44.9391901513547], [-93.2010946831146, 44.9391702871386], [-93.201095729652, 44.9388176537141], [-93.2010893704781, 44.9383516788447], [-93.2010855948589, 44.9380749721854], [-93.2010841063505, 44.9379658207583], [-93.2010832942735, 44.9379062643364], [-93.201072035688, 44.9375482053083], [-93.2010677228763, 44.9374110212162], [-93.2010623240015, 44.9372392978852], [-93.2010594224431, 44.937147005158], [-93.2010505533763, 44.9368648855987], [-93.2010426095743, 44.9367036130251], [-93.2010334494533, 44.9365176324255], [-93.2010285329738, 44.9364178150956], [-93.2010056897144, 44.9359540102045], [-93.2009758467824, 44.9355010490829], [-93.2009694112516, 44.9354033844848], [-93.2009584823479, 44.9352374929179], [-93.200949054529, 44.9350943949358], [-93.200949051834, 44.9350943472415], [-93.200945706508, 44.9350435718679], [-93.2009156093527, 44.9346789207598], [-93.2008885431132, 44.9343509962495], [-93.2008885242485, 44.9343507673139], [-93.2008866413797, 44.9343279844014], [-93.2008706064519, 44.9341336984333], [-93.2008546757286, 44.9339731285303], [-93.2008465459753, 44.9338911810703], [-93.2007804066142, 44.9332245190251], [-93.2007670001569, 44.9331088660058], [-93.2007499618109, 44.9329618713562], [-93.2007283070227, 44.9327750563554], [-93.2007163854805, 44.9326722149334], [-93.2007037407946, 44.9325631340024], [-93.2006994877209, 44.9325264366972], [-93.2006751123848, 44.9323161570519], [-93.2006302801639, 44.9319781721783], [-93.2005672247192, 44.931502818579], [-93.2005547471199, 44.9314087416543], [-93.2005083671017, 44.9310983410215], [-93.2004580075469, 44.9307613003951], [-93.2004493549741, 44.9307033932098], [-93.200445280216, 44.9306761207896], [-93.2004452739278, 44.9306760730917], [-93.2004193242942, 44.9305023968929], [-93.2003660299433, 44.9301817928131], [-93.200327903646, 44.9299524369242], [-93.2003190076297, 44.9298989178319], [-93.2002831783246, 44.9296833705697], [-93.2002831702398, 44.9296833273227], [-93.2002688627723, 44.929597247472], [-93.2001883422818, 44.9291588887802], [-93.2000919656282, 44.9286341904149], [-93.2000910736011, 44.9286293275929], [-93.2003195043981, 44.9276970815211], [-93.2003409175395, 44.9276096878834], [-93.2004601158929, 44.9270693994136], [-93.2004602623183, 44.9270687335081], [-93.2004610788869, 44.9270650350932], [-93.20046423916, 44.9270507108089], [-93.2005690770453, 44.9265755021452], [-93.2005815169153, 44.9265120910835], [-93.2007625849373, 44.9255891240263], [-93.2007724744902, 44.9255387078741], [-93.2009241568226, 44.9246630255459], [-93.2009324446794, 44.9246151762747], [-93.2009330007366, 44.9246114770658], [-93.2010627282434, 44.9237485925522], [-93.2010665523715, 44.9237231588304], [-93.2010889347952, 44.9235742803449], [-93.2010925577007, 44.9235458660069], [-93.2011130842049, 44.9233849268501], [-93.2011681437453, 44.9229532311652], [-93.2011693775814, 44.9229435618042], [-93.2011714782917, 44.9229270942464], [-93.201207128832, 44.9226475756553], [-93.2012177289524, 44.9225464385581], [-93.2012405407707, 44.9223287958567], [-93.2012881586673, 44.9218744716696], [-93.2013021391481, 44.9217410901024], [-93.2013165436336, 44.921603653258], [-93.2013278570163, 44.9214659298511], [-93.2013411377095, 44.9213042616483], [-93.2013700607667, 44.9209521520523], [-93.2013791651921, 44.9208413203108], [-93.2013928492288, 44.9206747305616], [-93.2014067695224, 44.9204459136418], [-93.2014141096566, 44.9203252670482], [-93.2014363133155, 44.9199602966794], [-93.2014426302686, 44.9198564737209], [-93.201444699987, 44.9198224357536], [-93.2014494062608, 44.9197450963234], [-93.201460427691, 44.9194568744371], [-93.2014703019726, 44.9191986584939], [-93.201473234972, 44.9191219530526], [-93.2014744674606, 44.9190897129085], [-93.2014805068342, 44.9189317674911], [-93.2014819513252, 44.9188940090437], [-93.2014894217151, 44.9186986690009], [-93.2014903442849, 44.918639791679], [-93.2014953838337, 44.9183179541274], [-93.2015016675491, 44.917916646355], [-93.2015017232446, 44.9179130217762], [-93.2015027131881, 44.9178498676849], [-93.2015033932127, 44.9178063911216], [-93.2015039905924, 44.9177682184594], [-93.2015010018974, 44.9173356447082], [-93.2014976592663, 44.9168517698885], [-93.2014967591544, 44.916721416078], [-93.20148154888, 44.9162277141952], [-93.2014683903577, 44.9158005748213], [-93.2014645168222, 44.915674852899], [-93.2014578881537, 44.9155507261417], [-93.201420726647, 44.9148548148886], [-93.2014181188378, 44.9148059968641], [-93.2014148624448, 44.9147450130801], [-93.2014006241476, 44.9145576954334], [-93.2013536081223, 44.913939152584], [-93.2013354073563, 44.9136997212165], [-93.2013032449742, 44.9133780761088], [-93.2012925873616, 44.9132715006554], [-93.2012568757358, 44.9129143517195], [-93.201254625456, 44.9128918503977], [-93.2012546200662, 44.9128917918701], [-93.2012309970691, 44.9126555376374], [-93.2012197348904, 44.9125909094803], [-93.2012157661335, 44.912568133205], [-93.2011767226563, 44.9123440915837], [-93.2011640159866, 44.9122711717863], [-93.2011516318121, 44.912220406137], [-93.2011473711027, 44.9122029417966], [-93.2010798815737, 44.911926277742], [-93.2010605830665, 44.9118471730956], [-93.2010533471369, 44.9118241884941], [-93.2010173166091, 44.9117097310345], [-93.2010140485381, 44.9116993472563], [-93.2009880521921, 44.9116167655525], [-93.2009416030037, 44.9114692164975], [-93.2008933230488, 44.9113445271735], [-93.2008644449074, 44.9112699513835], [-93.2008365872521, 44.9111980067726], [-93.2007809474, 44.9110543125912], [-93.2006826896742, 44.9108432567569], [-93.2006646056892, 44.9108044114666], [-93.2006236748516, 44.9107164939915], [-93.2005907471049, 44.910645765092], [-93.200424027873, 44.9103384338918], [-93.2003947086587, 44.910284386295], [-93.200149795573, 44.9098908254493], [-93.200120280526, 44.9098492629265], [-93.1998769817127, 44.9095066472394], [-93.1997020860151, 44.9092887381973], [-93.199576967764, 44.9091328500691], [-93.1992843451535, 44.9088061062238], [-93.1992536196267, 44.9087752093865], [-93.1989348726602, 44.9084546771405], [-93.1985606524791, 44.9081163597319], [-93.1982034975935, 44.9078238142595], [-93.1977849931639, 44.9075128045616], [-93.1977585764063, 44.9074950792091], [-93.1973447279448, 44.9072173541605], [-93.1969089318443, 44.9069526915961], [-93.1967066725649, 44.9068330060206], [-93.1965516080754, 44.9067412459563], [-93.196209924874, 44.9065390530159], [-93.1957359153396, 44.9062520965485], [-93.1956329019327, 44.906189732582], [-93.1949471352313, 44.9057650597778], [-93.1943838115981, 44.9054080938829], [-93.1943699622714, 44.9053993186857], [-93.1943591699116, 44.9053924789683], [-93.1943426157575, 44.9053822868335], [-93.1943295057443, 44.9053742146919], [-93.1943285193941, 44.905373608979], [-93.1948381534177, 44.9053797195528], [-93.1961273104106, 44.9053951658639], [-93.1962201468036, 44.9053962780338], [-93.1969509424569, 44.9054050277813], [-93.1969689716447, 44.9054052428347], [-93.1974063038643, 44.905410476649], [-93.1982085757698, 44.9054083286601], [-93.1983942862852, 44.9054078298381], [-93.1984990891361, 44.9054075492506], [-93.1985787975496, 44.9054073354697], [-93.1991457234271, 44.9054058122809], [-93.1992428124447, 44.9054055514172], [-93.1992593207846, 44.9054055062433], [-93.1995084855967, 44.9054048362693], [-93.1995747183826, 44.9054046581185], [-93.200037923879, 44.9054034097907], [-93.2006016023468, 44.9054018878742], [-93.2006064676224, 44.9054018751492], [-93.2024966190999, 44.9053967520421], [-93.2025598757672, 44.9053966903255], [-93.2027419499023, 44.9053965121748], [-93.2033297310674, 44.9053959382748], [-93.205022770612, 44.9053942655662], [-93.2061541627798, 44.9053931336724], [-93.2063163958251, 44.9053929688829], [-93.2075897757067, 44.9053916811072], [-93.2075920691056, 44.9053916798348], [-93.2075929701158, 44.905391677926], [-93.2075929844889, 44.905390241267], [-93.2075930006585, 44.9053887378016], [-93.207597492235, 44.9049577544034], [-93.2075983609058, 44.9048742560267], [-93.2076034058445, 44.9043900787232], [-93.2076117934143, 44.9035851559691], [-93.2076304109986, 44.9017982005098], [-93.2076307793078, 44.9017623021426], [-93.207649385214, 44.8999528529954], [-93.20765970506, 44.8989491985196], [-93.2076617298626, 44.8987522717717], [-93.2076623452086, 44.8986923616183], [-93.2076625302615, 44.8986743949234], [-93.2076625536178, 44.8986722027762], [-93.207662953368, 44.8986332328128], [-93.2076648003043, 44.898453651967], [-93.2076651650203, 44.8984181409455], [-93.2076656932297, 44.8983667356391], [-93.2076657749764, 44.8983587891423], [-93.2076659429613, 44.898342399171], [-93.2076680531039, 44.8981373163729], [-93.2076681240708, 44.8981304197942], [-93.2076682237838, 44.8981206889862], [-93.2076856771515, 44.8964229871298], [-93.2076862700395, 44.8963653011477], [-93.2076863571761, 44.896356884746], [-93.2076866841629, 44.8963250270059], [-93.2076872698645, 44.8962680740051], [-93.2076873731707, 44.8962579337064], [-93.2076875977496, 44.896236922569], [-93.2076896459084, 44.8962369181145], [-93.2077027792778, 44.8962368983875], [-93.207726095051, 44.8962368627517], [-93.2088322957633, 44.8962351630498], [-93.2089534623254, 44.896234976598], [-93.2101990609085, 44.8962330497175], [-93.2102184034332, 44.8962330191725], [-93.2108526274985, 44.8962320315508], [-93.210853435084, 44.8961310045054], [-93.2108534539486, 44.8961285596282], [-93.2108545786393, 44.8959882672847], [-93.2108750710076, 44.8934276832048], [-93.2112377056164, 44.893427670477], [-93.2115312067793, 44.8934276590221], [-93.2134042911647, 44.8934275686554], [-93.2134734713231, 44.8934273681941], [-93.2160470404075, 44.893419841029], [-93.217103639743, 44.8937948171294], [-93.2170868987394, 44.8945339971108], [-93.2170636665095, 44.8955597378612], [-93.2170544515913, 44.8959665897828], [-93.2178839155005, 44.8959676741353], [-93.219163184737, 44.8959693350274], [-93.219166720506, 44.8955481274419], [-93.219171715139, 44.8949532202916], [-93.2203142050937, 44.8949546903024], [-93.2204313579832, 44.8950121683346], [-93.2225257477288, 44.896039672172], [-93.2225222083665, 44.8964643410918], [-93.2225194765898, 44.8967920408845], [-93.2225192044002, 44.8968246957095], [-93.2222771946694, 44.8968243902626], [-93.222089663269, 44.8968241522686], [-93.2216395552094, 44.8968235801921], [-93.2214982511135, 44.896823400742], [-93.2214681440768, 44.8968233619248], [-93.2212754276005, 44.8968231156583], [-93.221146649613, 44.8968945978192], [-93.220955150354, 44.8970008950111], [-93.2204155332611, 44.897000204576], [-93.2197443030977, 44.8969993416912], [-93.2193801449461, 44.8968206822647], [-93.2191560395373, 44.8968203920902], [-93.2191475315932, 44.8978338915797], [-93.219264038594, 44.8977903566033], [-93.2204134455764, 44.8972622874099], [-93.2205328999496, 44.8972074053625], [-93.2205343228811, 44.8970967642279], [-93.2209698126561, 44.8970961565187], [-93.2225538066067, 44.8970939344032], [-93.2227675283892, 44.8970936321395], [-93.2228171719867, 44.8970741084455], [-93.2228316159982, 44.8970558326175], [-93.2228317040331, 44.8970493902595], [-93.222831757932, 44.8970454461921], [-93.2228319016624, 44.8970350584921], [-93.2229575059021, 44.8970353060305], [-93.2229646250507, 44.8970353193937], [-93.2229652907023, 44.8970353206664], [-93.2229655628919, 44.8970353206664], [-93.2230924660954, 44.8970355701137], [-93.2272850149175, 44.8970437153331], [-93.2272859491654, 44.8969285373695], [-93.231717919672, 44.8968982001787], [-93.2317240255209, 44.8954905042184], [-93.2317827735439, 44.8954901644009], [-93.2322886301517, 44.895487235861], [-93.2322887406445, 44.8954547794581], [-93.2322899910994, 44.8950875924941], [-93.2323031801644, 44.8950874913118], [-93.232304244668, 44.8950874836754], [-93.2323689386398, 44.8950869879456], [-93.2323962797638, 44.8950867779445], [-93.2323979362572, 44.8950867652172], [-93.2324150087392, 44.895086634762], [-93.2326852525193, 44.8950845646605], [-93.2350688297178, 44.895066277382], [-93.2350589141137, 44.8961781380519], [-93.2324948716629, 44.8961922084911], [-93.2325078613019, 44.8969489589975], [-93.2325573189482, 44.8970174718139], [-93.2374846582316, 44.8969832561421], [-93.2374854909699, 44.8970647573566], [-93.2374899493086, 44.897064833718], [-93.2381465297464, 44.8970760435702], [-93.2393491672994, 44.8970916575619], [-93.2393906074817, 44.8970921984549], [-93.2395182383207, 44.8970938637689], [-93.2402570550311, 44.8971035005717], [-93.2402615681671, 44.8971035591154], [-93.2406616571334, 44.8971087765042], [-93.2411672783827, 44.8971161243737], [-93.241387376407, 44.8971192749148], [-93.2413863029203, 44.8973619335154], [-93.2419046461106, 44.8973604750201], [-93.241905918125, 44.8972488923924], [-93.2424272823496, 44.8972468930028], [-93.2424288256553, 44.8971341882798], [-93.2425322891181, 44.8971356703255], [-93.2425335332848, 44.8970826494658], [-93.2426627999559, 44.8970818533985], [-93.2426452729264, 44.8976369845565], [-93.2431414564752, 44.8976301693691], [-93.2431453318074, 44.8973550883873], [-93.2432002673803, 44.8973544526818], [-93.2436951339989, 44.8973487306963], [-93.2437022360796, 44.896993179319], [-93.2437959420418, 44.8969926034261], [-93.2444517643015, 44.8969885658119], [-93.2444511291926, 44.8970708579957], [-93.244450130266, 44.897200448856], [-93.2449439260928, 44.8971949960284], [-93.2449441542649, 44.897067821994], [-93.2450517625545, 44.8970671557408], [-93.2450552040003, 44.896821359975], [-93.2450744611851, 44.8961536523868], [-93.2464780815115, 44.8961537866577], [-93.2471952569084, 44.8961538490205], [-93.2472193470294, 44.8961538509295], [-93.2472292945237, 44.8961538506114], [-93.2473155745626, 44.8961538585658], [-93.2473438876638, 44.8961538604748], [-93.2476275325113, 44.89615388402], [-93.2476442636335, 44.8961538852927], [-93.2476262919379, 44.8967835259113], [-93.2476065703242, 44.8974744144365], [-93.2476032941683, 44.8975892279571], [-93.2476032905751, 44.8975894099501], [-93.2476032878801, 44.897589471675], [-93.24774704797, 44.8975891140524], [-93.2477694366818, 44.8975890580545], [-93.2478905044293, 44.897588757066], [-93.248236522002, 44.8975879151893], [-93.2482532567174, 44.8975878731909], [-93.2482445875258, 44.8978658655696], [-93.2482445906699, 44.8978659139311], [-93.2482446652301, 44.8978659139311], [-93.2482465561837, 44.8978659094768], [-93.2501391304176, 44.897861279495], [-93.2514075102763, 44.897858152539], [-93.2516646943488, 44.8978575162027], [-93.2526096295013, 44.8978551763945], [-93.2526785105206, 44.89785500522], [-93.2539717153222, 44.8978517866312], [-93.2546427056354, 44.8978501111578], [-93.2546613348978, 44.8971840025563], [-93.2553802413483, 44.8971749028411], [-93.2554082184795, 44.8955377871986], [-93.255391486459, 44.8955378597439], [-93.2547072873178, 44.8955408060993], [-93.2547072909111, 44.8955407157359], [-93.2547116549267, 44.8953847139618], [-93.2547250191632, 44.8949068710202], [-93.2547082835495, 44.8949069951122], [-93.254685479816, 44.8949071669318], [-93.254670997177, 44.8949072744781], [-93.254677547692, 44.8946767675325], [-93.2546807438978, 44.894564306912], [-93.2546851115067, 44.8944105756184], [-93.2546683848761, 44.8944106169827], [-93.2544356053349, 44.8944111909924], [-93.2544212304937, 44.8944112266293], [-93.2544025105015, 44.8944112730847], [-93.254360975996, 44.8944113749046], [-93.2541252266244, 44.894411955278], [-93.254084452992, 44.8944120558251], [-93.2539488657746, 44.8944123892852], [-93.2539488666729, 44.8944123294661], [-93.2539524662223, 44.8942523606442], [-93.2539677393787, 44.893573805342], [-93.2539719533757, 44.8934161608125], [-93.2539739593138, 44.8933411570213], [-93.2539908647091, 44.8927087708579], [-93.2539936557747, 44.8926043621872], [-93.2539769237542, 44.8926043819154], [-93.2539619245839, 44.8926044010073], [-93.2539598333059, 44.8926044041892], [-93.2527129573185, 44.8926059398087], [-93.2527129591151, 44.8926059009887], [-93.2527462641543, 44.8917498621516], [-93.2527806588499, 44.8908657873802], [-93.2527833537957, 44.890796539813], [-93.2527666226736, 44.8907965334488], [-93.2522875619123, 44.8907963495251], [-93.2508636091178, 44.8907947594438], [-93.2508680135577, 44.8907721950497], [-93.2508742541539, 44.8907402521183], [-93.2508761145649, 44.8907307186212], [-93.2508761343278, 44.8907306136127], [-93.2508794760607, 44.8907135093185], [-93.2508796179945, 44.8907127761681], [-93.2512039457447, 44.8907128334455], [-93.252766649623, 44.8907130981942], [-93.2528795310233, 44.8907131153775], [-93.2541715832864, 44.8907133158483], [-93.2544923177754, 44.890713362943], [-93.255422562778, 44.8907134953174], [-93.2558890623966, 44.8907135576861], [-93.2564735539312, 44.8907136353288], [-93.2564964690557, 44.8907136378744], [-93.2565205151593, 44.8907136416929], [-93.2566052568333, 44.8907136525119], [-93.2569430530245, 44.8907136951518], [-93.2570036551702, 44.8907137027887], [-93.2571318699141, 44.8907137186992], [-93.2571686460435, 44.8907137225176], [-93.2572262801555, 44.8907137301546], [-93.2572378585412, 44.8907137314274], [-93.2572595798048, 44.8907137339731], [-93.2572671660773, 44.8907137346095], [-93.2574570869964, 44.8907137575205], [-93.2580148293967, 44.8907138243441], [-93.258867281194, 44.8907139185335], [-93.259248689694, 44.8907139592641], [-93.260449367123, 44.8907140776374], [-93.2615602381763, 44.8907141769181], [-93.26167967099, 44.8907141864644], [-93.2624531141614, 44.8907142488331], [-93.2628100112305, 44.8907142755625], [-93.2629069592126, 44.8907142831995], [-93.2637650398535, 44.8907143411133], [-93.2649997283974, 44.8907144149374], [-93.2651820360945, 44.8907144244837], [-93.2653373062981, 44.8907144321206], [-93.2678006044864, 44.8907145320378], [-93.2678034871802, 44.8907145320378], [-93.2678039992199, 44.8907145314015], [-93.2678191987145, 44.8907145320378], [-93.2678415847314, 44.8907145333107], [-93.2684886466204, 44.8907099383923], [-93.2695663626533, 44.8907022784972], [-93.2704196328158, 44.8906962051848], [-93.2717014245217, 44.890687070713], [-93.2717134026577, 44.8906869847969], [-93.2724287257285, 44.8906818813803], [-93.2732001243343, 44.8906763725664], [-93.2734637133949, 44.890674488776], [-93.2743965365623, 44.8906678178662], [-93.2749367690012, 44.8906639510038], [-93.2749592700024, 44.890663790627], [-93.2749797506926, 44.8906636423421], [-93.274983775145, 44.8906636143399], [-93.2750896344147, 44.8906628557322], [-93.2751483357253, 44.8906624363342], [-93.2751629665863, 44.890662331962], [-93.2751629665863, 44.8906623322802], [-93.2751686295659, 44.8906622912313]], [[-93.2746819825297, 44.92689859154781], [-93.2746818927006, 44.9268985921838], [-93.2746819825321, 44.9268985928198], [-93.2746819825297, 44.92689859154781]], [[-93.2857065460767, 45.0131127323087], [-93.286446142974, 45.0131130422177], [-93.28644614303875, 45.01311304221753], [-93.2857065460767, 45.0131127323087]], [[-93.2829336440399, 44.99202129288884], [-93.2829336444239, 44.9920212929004], [-93.2831105496528, 44.9919898916157], [-93.2829336440399, 44.99202129288884]], [[-93.2814309286928, 44.9919799931048], [-93.2814308554801, 44.9919799937401], [-93.28143092880005, 44.99197999310775], [-93.2814309286928, 44.9919799931048]]]}}]}