{"type": "FeatureCollection", "features": [{"type": "Feature", "properties": {"city": "stpaul"}, "geometry": {"type": "Polygon", "coordinates": [[[-93.1477361695142, 44.8985170945058], [-93.1491104557944, 44.8977856287428], [-93.1516096263455, 44.8947480808475], [-93.1537900824396, 44.8929436435271], [-93.1563831838899, 44.8921891219571], [-93.1643459962684, 44.8903396623245], [-93.1696033454013, 44.8880971930703], [-93.1732886676941, 44.8874388989315], [-93.1768509121875, 44.8877709055338], [-93.1779041901744, 44.8882822825726], [-93.1781999311303, 44.8890894810126], [-93.1779930317736, 44.8912826734123], [-93.176991159577, 44.8930781723058], [-93.1771885293958, 44.8935596981457], [-93.1818853759012, 44.8940775694463], [-93.1873770317262, 44.8949848007607], [-93.1911754771825, 44.8964003891874], [-93.1921475170248, 44.8974775772741], [-93.1915126508595, 44.9027693615454], [-93.1924236580886, 44.9042710031023], [-93.1945298587887, 44.9056755588798], [-93.1996193539258, 44.9083161442606], [-93.2008285788456, 44.9100729324795], [-93.2015558783445, 44.9131026181109], [-93.2010708097014, 44.9153378562666], [-93.2010565150883, 44.9198523110641], [-93.1997888228697, 44.9270325278004], [-93.1997905634429, 44.927045164805], [-93.2002897685174, 44.9306671756728], [-93.200790538347, 44.9343009182437], [-93.2006207947011, 44.9379024295198], [-93.200450790215, 44.9415039822463], [-93.2016020147043, 44.9451047729504], [-93.2026353003342, 44.9483361820912], [-93.2050183296245, 44.9519615911306], [-93.2077512217809, 44.9530560593493], [-93.2077587979338, 44.9532629665643], [-93.2077609627467, 44.9541355908402], [-93.2077642773298, 44.9555806926337], [-93.2077696677973, 44.959193313876], [-93.2077704267945, 44.9597252669947], [-93.2077748182667, 44.9628058894571], [-93.207742795545, 44.9664145923717], [-93.2077107699428, 44.9700233354457], [-93.2076901250085, 44.9736204810592], [-93.2076697182294, 44.9772176671913], [-93.2076415178723, 44.9808357091379], [-93.207613312701, 44.9844537479832], [-93.2075848655534, 44.9880709708295], [-93.2024838342904, 44.9880741896783], [-93.1973825615666, 44.9880771793168], [-93.1922827306492, 44.9880816575468], [-93.187182658192, 44.9880858643621], [-93.187223005471, 44.9844718367567], [-93.187262620746, 44.9808583185728], [-93.1873025644533, 44.9772447987607], [-93.1822347332974, 44.9772555228662], [-93.1771668939453, 44.9772660183573], [-93.1771662679739, 44.9772659380441], [-93.1720976016647, 44.9772861731775], [-93.1720861716259, 44.9772862186098], [-93.1670785820226, 44.97729216752], [-93.1669678448615, 44.9809186755588], [-93.166929614632, 44.9845310335497], [-93.1668858062825, 44.9881479218516], [-93.1617515224177, 44.9881889389034], [-93.1566172310808, 44.988229767346], [-93.156554918318, 44.991840829119], [-93.1515095663423, 44.9919083030824], [-93.1464642038146, 44.9919755531927], [-93.1413596106542, 44.9919360516786], [-93.136254782147, 44.9918963646095], [-93.1311768247431, 44.9918451090578], [-93.1261001783012, 44.9917945681858], [-93.1210329925384, 44.9918000149699], [-93.1159671062931, 44.9918061766035], [-93.1109226022628, 44.9918367191634], [-93.1058780930961, 44.9918669965527], [-93.1015652381304, 44.9918563488362], [-93.0964429108463, 44.9918434638646], [-93.0913675132946, 44.9918175281428], [-93.0892784072068, 44.991806786807], [-93.0862918794195, 44.9917913652762], [-93.0812498484448, 44.9918530861515], [-93.0762075642365, 44.9919146269027], [-93.0711644451813, 44.9919497593512], [-93.0661213199817, 44.9919846690421], [-93.0610157560799, 44.9919955248113], [-93.0559101915383, 44.9920061522765], [-93.0508046404986, 44.992013894358], [-93.0456991185433, 44.992016009399], [-93.0448778903448, 44.9920052061263], [-93.0405784875718, 44.9919995514605], [-93.0354581004749, 44.9919828654989], [-93.0303398918539, 44.9919658270563], [-93.0252216860182, 44.9919486023635], [-93.0201322924692, 44.9919594379785], [-93.0150431382258, 44.9919700043169], [-93.0100537552451, 44.991979684769], [-93.005064610268, 44.99198914708], [-93.0050758283101, 44.9883751032087], [-93.0050872871068, 44.9847610579212], [-93.0050985045685, 44.9811466668078], [-93.0051099617707, 44.9775322311122], [-93.0051212352971, 44.9739088800309], [-93.0051325074088, 44.9702855258775], [-93.0050913632946, 44.9666649958228], [-93.0050502494359, 44.9630445050886], [-93.0050386720331, 44.9594410400639], [-93.0050271224148, 44.9558376153261], [-93.0050148426692, 44.9522352136701], [-93.0050025657286, 44.9486328099562], [-93.0049517735328, 44.9446476363742], [-93.0049056950673, 44.9410477301683], [-93.0048647321271, 44.9374415824772], [-93.0048238781003, 44.9338356400664], [-93.0048218632492, 44.9302369105822], [-93.0048199518546, 44.9266384719103], [-93.004818036474, 44.923040673737], [-93.0048161213328, 44.9194428736227], [-93.0047170020104, 44.9158422203609], [-93.0046178960689, 44.9122416082916], [-93.004548867623, 44.9086541216932], [-93.0044800880586, 44.9050666771691], [-93.0044059058866, 44.9014951962387], [-93.0043317341765, 44.8979237143345], [-93.0043261040215, 44.8943453867922], [-93.0043202343408, 44.8907670143504], [-93.0093859467483, 44.8907616789748], [-93.014451659469, 44.8907561175469], [-93.0178257461175, 44.8907523752249], [-93.0183873698535, 44.8907517319764], [-93.0195055537748, 44.8907504642038], [-93.0200442695636, 44.8907498260421], [-93.0246067112308, 44.8940738462806], [-93.0347327741056, 44.8978309867921], [-93.0421252578605, 44.9051006733362], [-93.0451790021088, 44.9123069861265], [-93.0502658395636, 44.9194996271034], [-93.0551302765568, 44.9195056705506], [-93.0602080609219, 44.9195164438513], [-93.065286087549, 44.9195270357961], [-93.0704026476579, 44.9195503197941], [-93.0755194522846, 44.9195734171484], [-93.0806740400532, 44.9196152416573], [-93.0858286352917, 44.9196568331569], [-93.0909102903943, 44.9196678356851], [-93.0909349688063, 44.9232637052824], [-93.0960325623838, 44.923287161044], [-93.0959919474195, 44.9196786117516], [-93.0993217091284, 44.9197073516549], [-93.1057843791764, 44.9197631618522], [-93.110831727105, 44.9197350536306], [-93.1143462898248, 44.919715371996], [-93.115879069888, 44.919706764286], [-93.1202551985733, 44.9196821470025], [-93.1209261656051, 44.919678293262], [-93.1257698711166, 44.9196501258228], [-93.1259732591051, 44.9196492569246], [-93.1286285938637, 44.9196480196437], [-93.1312240434422, 44.9160230591121], [-93.1325755777099, 44.9124073091485], [-93.1336664917085, 44.9087767856366], [-93.136513207429, 44.9051474942967], [-93.1385920071578, 44.9039037181203], [-93.1416387891693, 44.9020885258827], [-93.1423465142309, 44.9016661583468], [-93.14668065675, 44.8990789909968], [-93.1477361695142, 44.8985170945058]], [[-93.1670422971097, 44.9737090622946], [-93.1670551744383, 44.9702850693346], [-93.1670377771624, 44.9749107880319], [-93.1670422971097, 44.9737090622946]], [[-93.1095194088452, 44.944814474145], [-93.1085329370802, 44.9445294633304], [-93.109533628873, 44.9448232040228], [-93.1100518671927, 44.9450772792909], [-93.1095194088452, 44.944814474145]], [[-93.1016101563414, 44.9432129888036], [-93.1012471927098, 44.9427740009948], [-93.1027170479451, 44.9445821701196], [-93.1016101563414, 44.9432129888036]], [[-93.1179585328619, 44.9413292398656], [-93.1122081644008, 44.94131483288], [-93.1122918994194, 44.941315044467], [-93.1179585328619, 44.9413292398656]]]}}]}