{"type": "FeatureCollection", "features": [{"type": "Feature", "properties": {}, "geometry": {"type": "Polygon", "coordinates": [[[-93.20118134027757, 44.930544294443784], [-93.20168211183847, 44.934178049576836], [-93.2016896302435, 44.93426049842603], [-93.20168954040062, 44.93434328931367], [-93.20151979675472, 44.93794480058977], [-93.20135743695883, 44.94138440025762], [-93.20186160305984, 44.94296132693586], [-93.20186093876691, 44.94297089051321], [-93.20183835307611, 44.94329602673558], [-93.20182925089031, 44.9434270512938], [-93.2018268089745, 44.94347438596086], [-93.2018209555522, 44.94358784492896], [-93.20182094719569, 44.943587996121494], [-93.20181857726591, 44.94363391819332], [-93.20181379656071, 44.943726579591434], [-93.20181323052955, 44.943754630133924], [-93.20180860420585, 44.94398379427073], [-93.20180860255911, 44.9439838701728], [-93.20180744959617, 44.94404103567911], [-93.2018076295876, 44.94405574736142], [-93.20181114831907, 44.944343136776965], [-93.20181130908247, 44.94435627463029], [-93.20181266539541, 44.94438860008716], [-93.20181855268382, 44.94452895597245], [-93.20182173928727, 44.94460489929384], [-93.20182218227906, 44.944615452215764], [-93.20182268420781, 44.94462245243308], [-93.20184025979044, 44.94486749287402], [-93.20184485789949, 44.94493161167406], [-93.2018712534756, 44.94519159302348], [-93.20190199801283, 44.945430394635885], [-93.20190468949491, 44.94545130246221], [-93.20194755735665, 44.945721345077985], [-93.20194748180737, 44.945720868495464], [-93.20195449770674, 44.945765063945885], [-93.20199878118669, 44.94599608509393], [-93.2020052431337, 44.94602979908547], [-93.20201451018958, 44.946078148767896], [-93.20205910111919, 44.94627898865333], [-93.20205913352673, 44.94627914403407], [-93.20207156928285, 44.946335152229686], [-93.20215054236824, 44.94664780473681], [-93.20222328868273, 44.946904525211636], [-93.20229232077638, 44.94712607668589], [-93.20230303468308, 44.947160457954496], [-93.20230381703989, 44.947162739414466], [-93.2023901616288, 44.947414536728765], [-93.20240879035326, 44.947468859122175], [-93.20247829420445, 44.947652999348136], [-93.20247835494466, 44.947653165650976], [-93.20252464783903, 44.94777580614679], [-93.20259810252672, 44.947955194425155], [-93.2026190265206, 44.94800629396525], [-93.20277756731696, 44.94832085589148], [-93.20278271553767, 44.948331070871724], [-93.20291425734246, 44.94855402474084], [-93.20296932508988, 44.948647360856164], [-93.20297663273331, 44.948659746457786], [-93.20319652695655, 44.94898291767682], [-93.20344221376506, 44.94929967210229], [-93.20344729999657, 44.94930547418682], [-93.20371330342246, 44.94960891417044], [-93.20393507831785, 44.949834168963086], [-93.2040092774267, 44.949909531376285], [-93.2042060038627, 44.95008823228406], [-93.20433038297367, 44.950201215100805], [-93.20461713302825, 44.95043611805687], [-93.2046170584761, 44.95043605698371], [-93.20463684302739, 44.95045226356554], [-93.20494940634664, 44.95068351767519], [-93.20499462730814, 44.95071697499048], [-93.20500188250395, 44.950722342443655], [-93.20528345904812, 44.950909576924936], [-93.2053288690855, 44.950939771546395], [-93.20538769221415, 44.950978885544856], [-93.20540966111025, 44.95099200422047], [-93.20547561576018, 44.951031389934464], [-93.20548927708498, 44.951039547945015], [-93.2056152137756, 44.95123114106493], [-93.20650845331345, 44.95158886549382], [-93.20657287029563, 44.95162019362899], [-93.20703144626607, 44.951819760062584], [-93.20705921492586, 44.95183044212702], [-93.20750483014673, 44.95200186247994], [-93.20756830415075, 44.952023253407674], [-93.20772489351795, 44.952076025274586], [-93.20808581896745, 44.952220568641536], [-93.20816444734787, 44.952256531594436], [-93.20823926193374, 44.95229987365173], [-93.20830957223666, 44.95235019479533], [-93.20837472933972, 44.95240703059487], [-93.20839806266237, 44.952431708610426], [-93.20842693287338, 44.95246463035454], [-93.2084772098169, 44.95253441553428], [-93.20852059564137, 44.95260868135817], [-93.20855669410338, 44.952686749555305], [-93.20858517551513, 44.952767907127644], [-93.20860577975543, 44.95285141286185], [-93.20861831864546, 44.95293650409876], [-93.20862267766735, 44.953022403698824], [-93.2086227040479, 44.953031499017165], [-93.20862278613646, 44.95305610404498], [-93.20862300170451, 44.953121357894844], [-93.20862319125834, 44.9531783940714], [-93.20862381108263, 44.953365670124754], [-93.20862512979838, 44.95376334932211], [-93.20862609639344, 44.954054681038734], [-93.20862619561326, 44.95408461195804], [-93.2086262196493, 44.95409217870969], [-93.20862634343874, 44.95412935899739], [-93.20862828944452, 44.95471693885328], [-93.20862842933707, 44.95475914758446], [-93.20862988718362, 44.95519973113691], [-93.20862996545426, 44.955222827905835], [-93.20863173243266, 44.955756727403276], [-93.20863278255773, 44.95607377905924], [-93.20863492503938, 44.95672026985143], [-93.20864055217366, 44.95841819132705], [-93.20864060602639, 44.95843458634033], [-93.2086415394537, 44.95871611185444], [-93.20864166155877, 44.95875340702365], [-93.20864258947383, 44.95903300849118], [-93.20864489907964, 44.95973050104069], [-93.20864515327806, 44.959807559177136], [-93.20864662469718, 44.9602513893698], [-93.2086504101983, 44.96139357430474], [-93.20865232001323, 44.96196984576378], [-93.20865508682432, 44.962804423347684], [-93.208655074533, 44.962812977175055], [-93.20865505650372, 44.962815890202954], [-93.20865299125549, 44.96314896998223], [-93.20864390547491, 44.9646133569512], [-93.20863269652394, 44.96642038228497], [-93.20863269500184, 44.96642058398164], [-93.20863238300329, 44.966470926633455], [-93.20863077772034, 44.966729654857595], [-93.2086236486832, 44.96787887664674], [-93.2086227701327, 44.96802047279325], [-93.20861312395527, 44.96957523016399], [-93.20861308087004, 44.969582161023084], [-93.20860336741801, 44.97114771869149], [-93.20860176032977, 44.97140672591376], [-93.20859432673211, 44.972604688406946], [-93.20859399886768, 44.972657466597106], [-93.20858718335187, 44.97375590831984], [-93.20858681235688, 44.97381566882802], [-93.2085838730771, 44.97428936621043], [-93.20858092121318, 44.97476509128743], [-93.2085802116016, 44.97487946978097], [-93.20857994606241, 44.97492239803211], [-93.20857990584766, 44.97492879137211], [-93.208579596153, 44.97497861272915], [-93.20857850653843, 44.975154136083624], [-93.2085748674745, 44.97574068273027], [-93.20857210422037, 44.97618611648005], [-93.20857155538714, 44.97627449521519], [-93.20857126162161, 44.97632189166885], [-93.20856551402697, 44.9772479868856], [-93.20856546832492, 44.97725531417055], [-93.20856484607701, 44.9773557149844], [-93.20854837397803, 44.979959593712906], [-93.20854149053505, 44.9808427238577], [-93.20851328535437, 44.984460763906455], [-93.20850165416822, 44.98593973803787], [-93.20849475186633, 44.986309434485534], [-93.20846164175916, 44.98808287967277], [-93.20846157857581, 44.9881299325187], [-93.20846138808409, 44.98827185538217], [-93.20844445650201, 44.988337623039435], [-93.20841436636532, 44.98842015330763], [-93.20837637378791, 44.98849935700424], [-93.20833084071529, 44.98857447957603], [-93.20827820092934, 44.9886448053496], [-93.20821895591574, 44.98870966434942], [-93.20815367008647, 44.98876843868048], [-93.20808296540284, 44.988820568414866], [-93.20800751545016, 44.98886555692601], [-93.20792803902071, 44.98890297561995], [-93.20784529326598, 44.98893246801842], [-93.20776006648346, 44.98895375315494], [-93.20767317060678, 44.988966628251475], [-93.2075854334706, 44.988970970650314], [-93.2066604473127, 44.98897155433436], [-93.2066615801972, 44.9881275165247], [-93.20666165385983, 44.98807265974373], [-93.20666176659688, 44.98805957232121], [-93.20666176839347, 44.98805945923121], [-93.20666181166294, 44.988056954958324], [-93.20667834246494, 44.98717154268382], [-93.20669191121745, 44.98717153412167], [-93.20670178629818, 44.98591585927745], [-93.20671627112895, 44.98514003252252], [-93.20672085745846, 44.98489432846412], [-93.20672171038767, 44.98474111580376], [-93.20672333006533, 44.98445047259963], [-93.20672591719806, 44.98398575291977], [-93.20672977904968, 44.98329189768357], [-93.20673065491762, 44.983134590805534], [-93.20674542139328, 44.98048235977038], [-93.20674600617163, 44.98037712190333], [-93.20674618858834, 44.98034436294782], [-93.20674826907023, 44.97997052518184], [-93.20674841972256, 44.979946709968544], [-93.2067697381265, 44.97721160702661], [-93.2067901398307, 44.97361531581518], [-93.20681078476501, 44.97001817020168], [-93.20681080538084, 44.97001534875714], [-93.20684283097745, 44.96640660631256], [-93.20687481257445, 44.96280253782029], [-93.2068704277106, 44.95972655112438], [-93.20686966875517, 44.959194627287324], [-93.2068642788699, 44.95558239624066], [-93.20686096530729, 44.954137739357094], [-93.20685980134765, 44.95366855357126], [-93.20577929948846, 44.95323583435753], [-93.20565215754252, 44.953174000972396], [-93.20537261913138, 44.95303804873244], [-93.20533974259173, 44.95302121661601], [-93.20520630234783, 44.952949404669205], [-93.20519111488535, 44.95294122959062], [-93.20519097949096, 44.952941157703165], [-93.20492428405616, 44.952797630151366], [-93.2048893721728, 44.952777825188214], [-93.2048077620259, 44.952729092135215], [-93.20455275076614, 44.9525768090371], [-93.20448679832543, 44.95253742464236], [-93.20445475555823, 44.952518290377945], [-93.20444604238557, 44.95251308653974], [-93.2044091833084, 44.9524898441825], [-93.2043322261312, 44.95243867208438], [-93.2043321762585, 44.95243863911776], [-93.20428679157371, 44.95240846115846], [-93.20419486540081, 44.95234733479815], [-93.20188322421134, 44.94883053166936], [-93.20184155208507, 44.948760403397834], [-93.2018064009834, 44.948686789943714], [-93.20177805968959, 44.94861029607703], [-93.20074476192161, 44.94537884897372], [-93.20004201865113, 44.94318081422097], [-93.20004268076167, 44.943171283242144], [-93.20006526594014, 44.94284615439493], [-93.20008754034009, 44.942525478171746], [-93.20009574093527, 44.94240742750589], [-93.20010819507145, 44.94217166640059], [-93.20012829827236, 44.941791105405485], [-93.20013716971664, 44.94162315157764], [-93.20014233019154, 44.941525428366184], [-93.2001430650659, 44.94151152689516], [-93.20016246290828, 44.9409756037325], [-93.20016942049243, 44.940783401351496], [-93.2001752116534, 44.94062344916831], [-93.20017550332591, 44.9406153742159], [-93.20017748666558, 44.940514104243285], [-93.20018733301731, 44.94001111700104], [-93.20019139346229, 44.93980373940573], [-93.20019305367678, 44.939718940455684], [-93.20019339977861, 44.93960238027879], [-93.20019376986605, 44.93947716883306], [-93.20019462864607, 44.939187494387404], [-93.20019468700282, 44.9391676416211], [-93.20019571142709, 44.93882245914417], [-93.20018945427506, 44.938363960029804], [-93.200185678629, 44.93808725140199], [-93.2001841900255, 44.93797809300278], [-93.20018348713091, 44.93792654384349], [-93.20017248026709, 44.93757649036978], [-93.20016816730717, 44.937439301563586], [-93.20016276846756, 44.93726757935214], [-93.20015986688847, 44.93717528596688], [-93.20015124934024, 44.93690116705826], [-93.20014369940465, 44.936747890636894], [-93.20013453917568, 44.93656190784494], [-93.20012962270592, 44.936462090713064], [-93.20010714628182, 44.93600573397123], [-93.20007779406359, 44.935560220987135], [-93.20007135883219, 44.93546256093267], [-93.20006042910293, 44.935296656835995], [-93.20005100148852, 44.93515356195759], [-93.20004814314736, 44.93511017224619], [-93.20001865932797, 44.93475295219309], [-93.19999159697814, 44.93442507480889], [-93.19998969905393, 44.934402109054886], [-93.1999742684869, 44.934215145841385], [-93.19995907279886, 44.934061984549935], [-93.19995094248368, 44.93398003142659], [-93.19988553721014, 44.93332076873181], [-93.1998729867056, 44.93321249973047], [-93.19985594752809, 44.933065497907606], [-93.19983429363431, 44.93287869062284], [-93.19982237222881, 44.93277585038005], [-93.19980972740214, 44.93266676823474], [-93.19980547299792, 44.93263005945148], [-93.19978195238228, 44.93242715325595], [-93.1997380948796, 44.932096516669034], [-93.19967503989018, 44.931621166501984], [-93.19966353414794, 44.93153441705549], [-93.19961824877251, 44.931231342375035], [-93.19956788918199, 44.93089430150959], [-93.19955923684587, 44.93083639590829], [-93.19955516053672, 44.930809113107216], [-93.19953029597156, 44.93064269369888], [-93.19947821277486, 44.930329375587924], [-93.1994400866206, 44.93010002055947], [-93.19943118907051, 44.930046492240066], [-93.19939536554745, 44.92983097976244], [-93.19939535027537, 44.92983089327664], [-93.19938229385758, 44.929752340276686], [-93.19930315185182, 44.92932148614382], [-93.1992067742231, 44.9287967824698], [-93.1992058441628, 44.92879171244925], [-93.19919367095946, 44.92869765400641], [-93.19919146355377, 44.928602836788], [-93.19919924645932, 44.92850831375415], [-93.1992169332457, 44.92841513459803], [-93.19944536261373, 44.92748289435792], [-93.19946429585806, 44.92740562194542], [-93.19958118278018, 44.9268758104632], [-93.19958126186032, 44.92687545082686], [-93.19958537657828, 44.926856802163364], [-93.19968794010317, 44.92639190270965], [-93.19969835118735, 44.92633883319198], [-93.19987941764904, 44.925415874088216], [-93.19988738372751, 44.92537526365525], [-93.20003736166429, 44.924509421030265], [-93.20004393671942, 44.92447146048104], [-93.20017273018586, 44.923614788749674], [-93.20017655517991, 44.923589349267964], [-93.20019743761357, 44.92345044808641], [-93.20019978532001, 44.92343203509602], [-93.20022031622568, 44.923271061423925], [-93.20027537581885, 44.922839365325366], [-93.20027661440251, 44.922829658745925], [-93.20027871172043, 44.922813217781176], [-93.20031308388667, 44.922543722300844], [-93.2003226318518, 44.92245262395097], [-93.20034544388717, 44.922234979178555], [-93.20039306165708, 44.921780656200184], [-93.20040704236575, 44.921647272458756], [-93.20042039259532, 44.92151989453728], [-93.200430878295, 44.92139224692548], [-93.20044415888809, 44.92123057994125], [-93.20047308179089, 44.920878472225], [-93.20048218644611, 44.92076763768566], [-93.20049508932105, 44.92061055781601], [-93.20050843036923, 44.920391262330234], [-93.20051577065529, 44.92027061324013], [-93.20053797421326, 44.919905644530324], [-93.20054429052452, 44.91980183212065], [-93.2005463592129, 44.91976781109268], [-93.20055045143175, 44.919700562572544], [-93.2005610849833, 44.91942248411719], [-93.20057095929954, 44.91916426726809], [-93.20057389200909, 44.91908756940706], [-93.20057512437486, 44.91905533247592], [-93.20058116404749, 44.91889737923739], [-93.20058260894456, 44.9188596101714], [-93.20058969121916, 44.918674418789934], [-93.20059045467967, 44.91862569563674], [-93.20059549414394, 44.91830386348318], [-93.20060177580035, 44.91790268720721], [-93.20060182947795, 44.917899193951285], [-93.20060282349723, 44.917835777103456], [-93.20060350328339, 44.917792315784425], [-93.20060394193915, 44.91776428560699], [-93.20060102337767, 44.91734186274916], [-93.20059768074005, 44.91685798698452], [-93.20059685485755, 44.91673838304538], [-93.20058197570319, 44.91625542880464], [-93.20056881711265, 44.91582828721524], [-93.20056525622171, 44.91571271268353], [-93.20055916873339, 44.9155987199284], [-93.20052200756078, 44.914902814931516], [-93.20051940021054, 44.914854005498924], [-93.20051668314989, 44.914803122012664], [-93.20050321292237, 44.914625909015896], [-93.20045619698811, 44.914007367364185], [-93.20045162957975, 44.91394728303424], [-93.20063273613697, 44.913112728393976], [-93.19999245689124, 44.91044553993334], [-93.19900540751644, 44.909011533170236], [-93.19588528076989, 44.907392716204846], [-93.19575158262356, 44.90731359958097], [-93.19574383594177, 44.90730896282052], [-93.19526982640737, 44.907022006353124], [-93.19516680433063, 44.906959637137994], [-93.1951590613355, 44.90695489602104], [-93.19447329463411, 44.90653022321684], [-93.19446540126474, 44.906525278420986], [-93.19390209385413, 44.906168322805996], [-93.19388826038067, 44.906159557653716], [-93.19388233465442, 44.90615580219714], [-93.19387076142915, 44.90614867674263], [-93.19385808249619, 44.906140870027635], [-93.19385754919591, 44.9061405425305], [-93.19378591624053, 44.90609164924091], [-93.19371932201464, 44.90603608807516], [-93.19365838492652, 44.90597437498616], [-93.19360367085108, 44.90590708305491], [-93.19355568787498, 44.90583483716876], [-93.19351488157842, 44.90575830821852], [-93.19348163089748, 44.90567820686848], [-93.1934562446051, 44.90559527695697], [-93.19343895844385, 44.90551028858899], [-93.19342993293675, 44.90542403098478], [-93.1934292518966, 44.905337305150994], [-93.19343692164767, 44.905250916442355], [-93.19345287096701, 44.90516566708297], [-93.19347695174581, 44.90508234871672], [-93.1935089403648, 44.905001735055855], [-93.19354853977076, 44.90492457469615], [-93.19359538223513, 44.90485158416529], [-93.19364903276869, 44.90478344126904], [-93.19370899316108, 44.90472077879696], [-93.19377470660719, 44.90466417864623], [-93.19384556287785, 44.90461416641803], [-93.19392090398651, 44.904571206536644], [-93.19400003029945, 44.90453569793677], [-93.1940822070327, 44.90450797035889], [-93.19416667107546, 44.904488281287264], [-93.19425263807649, 44.90447681355883], [-93.19433930972775, 44.90447367366538], [-93.19434992406347, 44.90447380093255], [-93.19498814017017, 44.90489940620365], [-93.19770631189532, 44.90630967663846], [-93.19758450585253, 44.906310002759845], [-93.1978119012199, 44.90644810184102], [-93.19784623867996, 44.90647003429424], [-93.19826006385516, 44.90674774371588], [-93.19828645745119, 44.90676545352722], [-93.19832181900011, 44.90679043483523], [-93.1987403234297, 44.90710144453313], [-93.19877379434496, 44.90712756601693], [-93.19913094923056, 44.90742011148933], [-93.1991642166661, 44.907448744369454], [-93.1995384368472, 44.90778706177805], [-93.19957304350278, 44.90782006074007], [-93.1998917868024, 44.90814058929865], [-93.19992250797516, 44.90817148175764], [-93.19995478405434, 44.90820567997501], [-93.20024740666484, 44.90853242382031], [-93.20027885324697, 44.90856950579709], [-93.20040397387152, 44.90872539688245], [-93.20057886956913, 44.90894330592455], [-93.20061078426235, 44.90898555817011], [-93.2008540808437, 44.90932817071416], [-93.20088359312032, 44.90936972933578], [-93.20091391970722, 44.909415310667725], [-93.20115883279293, 44.90980887151342], [-93.20118580503917, 44.909855240029934], [-93.20121512374777, 44.90990928669452], [-93.20138184219768, 44.9102166164532], [-93.20140666114135, 44.91026591737894], [-93.20143958679682, 44.91033664178648], [-93.20148052285286, 44.91042457047086], [-93.20149860462925, 44.91046341101696], [-93.20159686001934, 44.91067446183416], [-93.20162022663774, 44.91072933511336], [-93.20167586661383, 44.910873029614976], [-93.2017037210596, 44.91094496593702], [-93.20173260460433, 44.91101955568159], [-93.20178088455923, 44.911144245005595], [-93.2018000697291, 44.91119896683263], [-93.2018465212751, 44.911346523376785], [-93.20187253408393, 44.91142915738308], [-93.20187579405541, 44.911439515426345], [-93.20191181385773, 44.9115539388145], [-93.20191904700131, 44.911576914566325], [-93.20193493943367, 44.91163386359466], [-93.2019542422452, 44.911712985885266], [-93.20202172912269, 44.91198963907042], [-93.20202599096176, 44.91200710804185], [-93.20203837513627, 44.91205787369115], [-93.20205065527354, 44.91211667008774], [-93.2020633609173, 44.9121895839976], [-93.2021024062924, 44.912413636510436], [-93.20210637412721, 44.912436407493985], [-93.20211763549236, 44.912501030982476], [-93.2021265314508, 44.912565993395795], [-93.20215015444789, 44.9128022476285], [-93.20215016556344, 44.91280236340854], [-93.20215241001821, 44.912824806485055], [-93.20218812129025, 44.91318195188288], [-93.20219877903217, 44.913288528629714], [-93.20223094141427, 44.91361017373742], [-93.20223281823418, 44.913631503064586], [-93.202251019386, 44.913870939507554], [-93.20226634341408, 44.91407254242776], [-93.20197050409736, 44.915435795522164], [-93.20195651057657, 44.91985516081847], [-93.20195295623031, 44.91993226904618], [-93.20194280771597, 44.9200087891077], [-93.20069970256237, 44.927049744552505], [-93.20118134027757, 44.930544294443784]]]}}]}